{"type":"FeatureCollection","name":"lotes-mapa","source":"completo(1).geojson","stats":{"lotesActivos":254,"zonasReferencia":0,"poligonosSinCodigoOmitidos":0,"featuresOriginales":296,"featuresNormalizadas":254},"features":[{"type":"Feature","properties":{"LOTE":"CACAO","CAMPO":"MOTUPE","FUNDO":"CHOLOQUE","MODULO":"M02","ACTIVO":true,"PIEZAS":1,"TIPO":"LOTE"},"geometry":{"type":"Polygon","coordinates":[[[-79.735973,-6.228802],[-79.736065,-6.229069],[-79.736228,-6.229451],[-79.736195,-6.229633],[-79.735968,-6.229622],[-79.735934,-6.229559],[-79.735893,-6.228799],[-79.735973,-6.228802]]]}},{"type":"Feature","properties":{"LOTE":"M07T01-01","CAMPO":"OLMOS","FUNDO":"CHOLOCAL","MODULO":"M07","ACTIVO":true,"PIEZAS":2,"TIPO":"LOTE"},"geometry":{"type":"MultiPolygon","coordinates":[[[[-79.950242,-6.101011],[-79.950619,-6.102477],[-79.94888,-6.102959],[-79.948734,-6.102337],[-79.949432,-6.101202],[-79.950242,-6.101011]]],[[[-79.949271,-6.101264],[-79.948692,-6.102138],[-79.948522,-6.101452],[-79.949271,-6.101264]]]]}},{"type":"Feature","properties":{"LOTE":"M07T01-02","CAMPO":"OLMOS","FUNDO":"CHOLOCAL","MODULO":"M07","ACTIVO":true,"PIEZAS":1,"TIPO":"LOTE"},"geometry":{"type":"Polygon","coordinates":[[[-79.948903,-6.103003],[-79.950621,-6.102536],[-79.951034,-6.104069],[-79.949275,-6.104512],[-79.948903,-6.103003]]]}},{"type":"Feature","properties":{"LOTE":"M07T01-03","CAMPO":"OLMOS","FUNDO":"CHOLOCAL","MODULO":"M07","ACTIVO":true,"PIEZAS":1,"TIPO":"LOTE"},"geometry":{"type":"Polygon","coordinates":[[[-79.95103,-6.104124],[-79.951417,-6.105625],[-79.949681,-6.106061],[-79.949309,-6.104555],[-79.95103,-6.104124]]]}},{"type":"Feature","properties":{"LOTE":"M07T02-04","CAMPO":"OLMOS","FUNDO":"CHOLOCAL","MODULO":"M07","ACTIVO":true,"PIEZAS":1,"TIPO":"LOTE"},"geometry":{"type":"Polygon","coordinates":[[[-79.951437,-6.105683],[-79.951826,-6.1072],[-79.950079,-6.107652],[-79.94971,-6.106159],[-79.950325,-6.105998],[-79.950341,-6.106015],[-79.950539,-6.105951],[-79.950534,-6.105926],[-79.951437,-6.105683]]]}},{"type":"Feature","properties":{"LOTE":"M07T02-05","CAMPO":"OLMOS","FUNDO":"CHOLOCAL","MODULO":"M07","ACTIVO":true,"PIEZAS":2,"TIPO":"LOTE"},"geometry":{"type":"MultiPolygon","coordinates":[[[[-79.947075,-6.103519],[-79.94792,-6.103278],[-79.947231,-6.104238],[-79.947075,-6.103519]]],[[[-79.948842,-6.103025],[-79.949219,-6.10452],[-79.947426,-6.104987],[-79.947302,-6.104446],[-79.948112,-6.10321],[-79.948842,-6.103025]]]]}},{"type":"Feature","properties":{"LOTE":"M07T02-06","CAMPO":"OLMOS","FUNDO":"CHOLOCAL","MODULO":"M07","ACTIVO":true,"PIEZAS":1,"TIPO":"LOTE"},"geometry":{"type":"Polygon","coordinates":[[[-79.949241,-6.104602],[-79.949622,-6.10606],[-79.94785,-6.106531],[-79.947457,-6.105044],[-79.949241,-6.104602]]]}},{"type":"Feature","properties":{"LOTE":"M07T02-07","CAMPO":"OLMOS","FUNDO":"CHOLOCAL","MODULO":"M07","ACTIVO":true,"PIEZAS":1,"TIPO":"LOTE"},"geometry":{"type":"Polygon","coordinates":[[[-79.949636,-6.106142],[-79.950013,-6.107653],[-79.948233,-6.108118],[-79.947859,-6.106591],[-79.949636,-6.106142]]]}},{"type":"Feature","properties":{"LOTE":"M07T03-08","CAMPO":"OLMOS","FUNDO":"CHOLOCAL","MODULO":"M07","ACTIVO":true,"PIEZAS":2,"TIPO":"LOTE"},"geometry":{"type":"MultiPolygon","coordinates":[[[[-79.947382,-6.105091],[-79.947773,-6.106574],[-79.945966,-6.107018],[-79.94585,-6.106554],[-79.946763,-6.105232],[-79.947382,-6.105091]]],[[[-79.946566,-6.105324],[-79.945816,-6.10642],[-79.945576,-6.105567],[-79.946566,-6.105324]]]]}},{"type":"Feature","properties":{"LOTE":"M07T03-09","CAMPO":"OLMOS","FUNDO":"CHOLOCAL","MODULO":"M07","ACTIVO":true,"PIEZAS":1,"TIPO":"LOTE"},"geometry":{"type":"Polygon","coordinates":[[[-79.947781,-6.106621],[-79.948165,-6.108124],[-79.946366,-6.108599],[-79.945984,-6.107084],[-79.947781,-6.106621]]]}},{"type":"Feature","properties":{"LOTE":"M07T04-10","CAMPO":"OLMOS","FUNDO":"CHOLOCAL","MODULO":"M07","ACTIVO":true,"PIEZAS":1,"TIPO":"LOTE"},"geometry":{"type":"Polygon","coordinates":[[[-79.94819,-6.108201],[-79.948574,-6.109689],[-79.946773,-6.110163],[-79.946382,-6.108658],[-79.94819,-6.108201]]]}},{"type":"Feature","properties":{"LOTE":"M07T03-11","CAMPO":"OLMOS","FUNDO":"CHOLOCAL","MODULO":"M07","ACTIVO":true,"PIEZAS":2,"TIPO":"LOTE"},"geometry":{"type":"MultiPolygon","coordinates":[[[[-79.94519,-6.107357],[-79.944362,-6.108575],[-79.944113,-6.107608],[-79.94519,-6.107357]]],[[[-79.94592,-6.107129],[-79.946282,-6.108627],[-79.944494,-6.109089],[-79.944382,-6.108664],[-79.945387,-6.107269],[-79.94592,-6.107129]]]]}},{"type":"Feature","properties":{"LOTE":"M07T03-12","CAMPO":"OLMOS","FUNDO":"CHOLOCAL","MODULO":"M07","ACTIVO":true,"PIEZAS":1,"TIPO":"LOTE"},"geometry":{"type":"Polygon","coordinates":[[[-79.9463,-6.108678],[-79.946712,-6.110181],[-79.944925,-6.110645],[-79.944513,-6.109139],[-79.9463,-6.108678]]]}},{"type":"Feature","properties":{"LOTE":"M07T04-13","CAMPO":"OLMOS","FUNDO":"CHOLOCAL","MODULO":"M07","ACTIVO":true,"PIEZAS":1,"TIPO":"LOTE"},"geometry":{"type":"Polygon","coordinates":[[[-79.946705,-6.11025],[-79.946932,-6.111106],[-79.94632,-6.111274],[-79.946194,-6.11078],[-79.945903,-6.110854],[-79.945995,-6.111289],[-79.945144,-6.11151],[-79.944939,-6.110715],[-79.945093,-6.110679],[-79.945152,-6.110939],[-79.945486,-6.110851],[-79.945416,-6.11059],[-79.946705,-6.11025]]]}},{"type":"Feature","properties":{"LOTE":"M08T01-14","CAMPO":"OLMOS","FUNDO":"CHOLOCAL","MODULO":"M08","ACTIVO":true,"PIEZAS":1,"TIPO":"LOTE"},"geometry":{"type":"Polygon","coordinates":[[[-79.951838,-6.107258],[-79.952228,-6.108765],[-79.950501,-6.109199],[-79.950102,-6.107697],[-79.951838,-6.107258]]]}},{"type":"Feature","properties":{"LOTE":"M08T01-15","CAMPO":"OLMOS","FUNDO":"CHOLOCAL","MODULO":"M08","ACTIVO":true,"PIEZAS":1,"TIPO":"LOTE"},"geometry":{"type":"Polygon","coordinates":[[[-79.952238,-6.108827],[-79.952497,-6.109847],[-79.950917,-6.110239],[-79.950678,-6.109217],[-79.952238,-6.108827]]]}},{"type":"Feature","properties":{"LOTE":"M08T01-15B","CAMPO":"OLMOS","FUNDO":"CHOLOCAL","MODULO":"M08","ACTIVO":true,"PIEZAS":1,"TIPO":"LOTE"},"geometry":{"type":"Polygon","coordinates":[[[-79.952522,-6.109889],[-79.952645,-6.110307],[-79.951054,-6.110726],[-79.950944,-6.110289],[-79.952522,-6.109889]]]}},{"type":"Feature","properties":{"LOTE":"M08T01-16","CAMPO":"OLMOS","FUNDO":"CHOLOCAL","MODULO":"M08","ACTIVO":true,"PIEZAS":1,"TIPO":"LOTE"},"geometry":{"type":"Polygon","coordinates":[[[-79.950046,-6.107716],[-79.950449,-6.109204],[-79.948622,-6.109677],[-79.948248,-6.108173],[-79.950046,-6.107716]]]}},{"type":"Feature","properties":{"LOTE":"M08T02-17","CAMPO":"OLMOS","FUNDO":"CHOLOCAL","MODULO":"M08","ACTIVO":true,"PIEZAS":1,"TIPO":"LOTE"},"geometry":{"type":"Polygon","coordinates":[[[-79.952675,-6.110534],[-79.953023,-6.111981],[-79.951321,-6.112413],[-79.951031,-6.111391],[-79.951089,-6.111131],[-79.951089,-6.110958],[-79.952675,-6.110534]]]}},{"type":"Feature","properties":{"LOTE":"M08T02-18","CAMPO":"OLMOS","FUNDO":"CHOLOCAL","MODULO":"M08","ACTIVO":true,"PIEZAS":1,"TIPO":"LOTE"},"geometry":{"type":"Polygon","coordinates":[[[-79.953051,-6.112039],[-79.953441,-6.113559],[-79.951727,-6.113989],[-79.951356,-6.112489],[-79.953051,-6.112039]]]}},{"type":"Feature","properties":{"LOTE":"M08T02-19","CAMPO":"OLMOS","FUNDO":"CHOLOCAL","MODULO":"M08","ACTIVO":true,"PIEZAS":1,"TIPO":"LOTE"},"geometry":{"type":"Polygon","coordinates":[[[-79.953449,-6.113618],[-79.953854,-6.115094],[-79.952134,-6.115554],[-79.951753,-6.114049],[-79.953449,-6.113618]]]}},{"type":"Feature","properties":{"LOTE":"M08T03-20","CAMPO":"OLMOS","FUNDO":"CHOLOCAL","MODULO":"M08","ACTIVO":true,"PIEZAS":1,"TIPO":"LOTE"},"geometry":{"type":"Polygon","coordinates":[[[-79.951007,-6.11153],[-79.951261,-6.112417],[-79.94945,-6.112899],[-79.949445,-6.111847],[-79.949584,-6.111971],[-79.949856,-6.112104],[-79.950106,-6.112136],[-79.9503,-6.112095],[-79.950563,-6.112012],[-79.950767,-6.111819],[-79.950938,-6.111649],[-79.951007,-6.11153]]]}},{"type":"Feature","properties":{"LOTE":"M08T04-21","CAMPO":"OLMOS","FUNDO":"CHOLOCAL","MODULO":"M08","ACTIVO":true,"PIEZAS":2,"TIPO":"LOTE"},"geometry":{"type":"MultiPolygon","coordinates":[[[[-79.95128,-6.112515],[-79.951654,-6.113991],[-79.949851,-6.114465],[-79.949471,-6.112984],[-79.95128,-6.112515]]],[[[-79.949779,-6.114494],[-79.949432,-6.114571],[-79.949446,-6.113689],[-79.949562,-6.113539],[-79.949779,-6.114494]]]]}},{"type":"Feature","properties":{"LOTE":"M08T03-22","CAMPO":"OLMOS","FUNDO":"CHOLOCAL","MODULO":"M08","ACTIVO":true,"PIEZAS":2,"TIPO":"LOTE"},"geometry":{"type":"MultiPolygon","coordinates":[[[[-79.95167,-6.114087],[-79.95207,-6.115563],[-79.950244,-6.116018],[-79.949873,-6.114533],[-79.95167,-6.114087]]],[[[-79.949804,-6.114559],[-79.950183,-6.116051],[-79.94944,-6.116225],[-79.949482,-6.114615],[-79.949804,-6.114559]]]]}},{"type":"Feature","properties":{"LOTE":"M08T04-23","CAMPO":"OLMOS","FUNDO":"CHOLOCAL","MODULO":"M08","ACTIVO":true,"PIEZAS":1,"TIPO":"LOTE"},"geometry":{"type":"Polygon","coordinates":[[[-79.950197,-6.116154],[-79.950591,-6.117602],[-79.949433,-6.11793],[-79.949433,-6.117578],[-79.949602,-6.117546],[-79.949441,-6.116794],[-79.949441,-6.11633],[-79.950197,-6.116154]]]}},{"type":"Feature","properties":{"LOTE":"M08T04-24","CAMPO":"OLMOS","FUNDO":"CHOLOCAL","MODULO":"M08","ACTIVO":true,"PIEZAS":1,"TIPO":"LOTE"},"geometry":{"type":"Polygon","coordinates":[[[-79.952093,-6.115658],[-79.952295,-6.116518],[-79.952482,-6.11714],[-79.951589,-6.117372],[-79.951525,-6.117349],[-79.951299,-6.117413],[-79.951269,-6.117431],[-79.950662,-6.117575],[-79.950281,-6.116108],[-79.952093,-6.115658]]]}},{"type":"Feature","properties":{"LOTE":"M08T04-25","CAMPO":"OLMOS","FUNDO":"CHOLOCAL","MODULO":"M08","ACTIVO":true,"PIEZAS":1,"TIPO":"LOTE"},"geometry":{"type":"Polygon","coordinates":[[[-79.953896,-6.115183],[-79.954282,-6.116668],[-79.952542,-6.117133],[-79.952364,-6.11652],[-79.952161,-6.115624],[-79.953896,-6.115183]]]}},{"type":"Feature","properties":{"LOTE":"M10T01-26","CAMPO":"OLMOS","FUNDO":"CHOLOCAL","MODULO":"M10","ACTIVO":true,"PIEZAS":3,"TIPO":"LOTE"},"geometry":{"type":"MultiPolygon","coordinates":[[[[-79.955779,-6.122288],[-79.955959,-6.122914],[-79.954126,-6.123375],[-79.953981,-6.122777],[-79.955779,-6.122288]]],[[[-79.953905,-6.122784],[-79.954064,-6.123409],[-79.952266,-6.123856],[-79.9521,-6.123224],[-79.953905,-6.122784]]],[[[-79.95201,-6.123244],[-79.952203,-6.123897],[-79.951429,-6.124062],[-79.950979,-6.123533],[-79.95201,-6.123244]]]]}},{"type":"Feature","properties":{"LOTE":"M10T01-27","CAMPO":"OLMOS","FUNDO":"CHOLOCAL","MODULO":"M10","ACTIVO":true,"PIEZAS":2,"TIPO":"LOTE"},"geometry":{"type":"MultiPolygon","coordinates":[[[[-79.954068,-6.12349],[-79.954458,-6.125007],[-79.952669,-6.12544],[-79.952299,-6.123957],[-79.954068,-6.12349]]],[[[-79.952231,-6.123973],[-79.952529,-6.125108],[-79.952418,-6.125108],[-79.95154,-6.124159],[-79.952231,-6.123973]]]]}},{"type":"Feature","properties":{"LOTE":"M10T01-28","CAMPO":"OLMOS","FUNDO":"CHOLOCAL","MODULO":"M10","ACTIVO":true,"PIEZAS":1,"TIPO":"LOTE"},"geometry":{"type":"Polygon","coordinates":[[[-79.954481,-6.125065],[-79.954849,-6.126555],[-79.95391,-6.126785],[-79.953809,-6.126632],[-79.952781,-6.125497],[-79.954481,-6.125065]]]}},{"type":"Feature","properties":{"LOTE":"M10T02-29","CAMPO":"OLMOS","FUNDO":"CHOLOCAL","MODULO":"M10","ACTIVO":true,"PIEZAS":1,"TIPO":"LOTE"},"geometry":{"type":"Polygon","coordinates":[[[-79.95595,-6.122998],[-79.956326,-6.124528],[-79.954517,-6.124987],[-79.954134,-6.123464],[-79.95595,-6.122998]]]}},{"type":"Feature","properties":{"LOTE":"M10T02-30","CAMPO":"OLMOS","FUNDO":"CHOLOCAL","MODULO":"M10","ACTIVO":true,"PIEZAS":1,"TIPO":"LOTE"},"geometry":{"type":"Polygon","coordinates":[[[-79.956335,-6.124593],[-79.956704,-6.1261],[-79.954944,-6.126549],[-79.954546,-6.125054],[-79.956335,-6.124593]]]}},{"type":"Feature","properties":{"LOTE":"M10T02-31","CAMPO":"OLMOS","FUNDO":"CHOLOCAL","MODULO":"M10","ACTIVO":true,"PIEZAS":1,"TIPO":"LOTE"},"geometry":{"type":"Polygon","coordinates":[[[-79.954963,-6.126608],[-79.956686,-6.126176],[-79.957019,-6.127689],[-79.955593,-6.128026],[-79.955593,-6.12792],[-79.955444,-6.12727],[-79.955302,-6.127205],[-79.955099,-6.127157],[-79.954963,-6.126608]]]}},{"type":"Feature","properties":{"LOTE":"M10T03-32","CAMPO":"OLMOS","FUNDO":"CHOLOCAL","MODULO":"M10","ACTIVO":true,"PIEZAS":1,"TIPO":"LOTE"},"geometry":{"type":"Polygon","coordinates":[[[-79.954874,-6.126626],[-79.955028,-6.127169],[-79.95482,-6.127264],[-79.954321,-6.127914],[-79.953899,-6.128003],[-79.953881,-6.127831],[-79.95381,-6.127642],[-79.953851,-6.126886],[-79.954874,-6.126626]]]}},{"type":"Feature","properties":{"LOTE":"M10T03-33","CAMPO":"OLMOS","FUNDO":"CHOLOCAL","MODULO":"M10","ACTIVO":true,"PIEZAS":1,"TIPO":"LOTE"},"geometry":{"type":"Polygon","coordinates":[[[-79.957009,-6.127756],[-79.95738,-6.12927],[-79.955736,-6.129676],[-79.955364,-6.128253],[-79.955437,-6.128162],[-79.957009,-6.127756]]]}},{"type":"Feature","properties":{"LOTE":"M10T03-34","CAMPO":"OLMOS","FUNDO":"CHOLOCAL","MODULO":"M10","ACTIVO":true,"PIEZAS":1,"TIPO":"LOTE"},"geometry":{"type":"Polygon","coordinates":[[[-79.955334,-6.128392],[-79.955669,-6.129688],[-79.953872,-6.130136],[-79.953842,-6.129984],[-79.954658,-6.129367],[-79.954962,-6.129258],[-79.9547,-6.128555],[-79.955334,-6.128392]]]}},{"type":"Feature","properties":{"LOTE":"M10T03-35","CAMPO":"OLMOS","FUNDO":"CHOLOCAL","MODULO":"M10","ACTIVO":true,"PIEZAS":1,"TIPO":"LOTE"},"geometry":{"type":"Polygon","coordinates":[[[-79.957384,-6.129363],[-79.957425,-6.129641],[-79.956955,-6.130363],[-79.956667,-6.131092],[-79.956164,-6.131231],[-79.955768,-6.129756],[-79.957384,-6.129363]]]}},{"type":"Feature","properties":{"LOTE":"M10T04-36","CAMPO":"OLMOS","FUNDO":"CHOLOCAL","MODULO":"M10","ACTIVO":true,"PIEZAS":2,"TIPO":"LOTE"},"geometry":{"type":"MultiPolygon","coordinates":[[[[-79.955669,-6.129764],[-79.956073,-6.131264],[-79.954276,-6.131715],[-79.953913,-6.130199],[-79.955669,-6.129764]]],[[[-79.953905,-6.130472],[-79.954229,-6.131722],[-79.953822,-6.131827],[-79.953905,-6.130472]]]]}},{"type":"Feature","properties":{"LOTE":"M10T04-37","CAMPO":"OLMOS","FUNDO":"CHOLOCAL","MODULO":"M10","ACTIVO":true,"PIEZAS":2,"TIPO":"LOTE"},"geometry":{"type":"MultiPolygon","coordinates":[[[[-79.954309,-6.131788],[-79.956113,-6.131322],[-79.95622,-6.131768],[-79.955585,-6.13305],[-79.954677,-6.133263],[-79.954309,-6.131788]]],[[[-79.954215,-6.131806],[-79.95463,-6.1333],[-79.953833,-6.133499],[-79.953826,-6.131885],[-79.954215,-6.131806]]]]}},{"type":"Feature","properties":{"LOTE":"M10T04-38","CAMPO":"OLMOS","FUNDO":"CHOLOCAL","MODULO":"M10","ACTIVO":true,"PIEZAS":3,"TIPO":"LOTE"},"geometry":{"type":"MultiPolygon","coordinates":[[[[-79.954623,-6.133357],[-79.954875,-6.134326],[-79.954556,-6.134978],[-79.953846,-6.135152],[-79.953846,-6.133579],[-79.954623,-6.133357]]],[[[-79.955472,-6.133186],[-79.954917,-6.134233],[-79.954694,-6.133355],[-79.955472,-6.133186]]],[[[-79.95447,-6.135126],[-79.953824,-6.136394],[-79.953828,-6.135283],[-79.95447,-6.135126]]]]}},{"type":"Feature","properties":{"LOTE":"M11T01-39","CAMPO":"OLMOS","FUNDO":"CHALLAPAMPA","MODULO":"M11","ACTIVO":true,"PIEZAS":2,"TIPO":"LOTE"},"geometry":{"type":"MultiPolygon","coordinates":[[[[-79.948479,-6.101374],[-79.948086,-6.099895],[-79.948796,-6.09974],[-79.948792,-6.099686],[-79.949832,-6.099435],[-79.950028,-6.100124],[-79.949316,-6.101167],[-79.948479,-6.101374]]],[[[-79.950205,-6.100936],[-79.949538,-6.101101],[-79.950066,-6.100326],[-79.950205,-6.100936]]]]}},{"type":"Feature","properties":{"LOTE":"M11T01-40","CAMPO":"OLMOS","FUNDO":"CHALLAPAMPA","MODULO":"M11","ACTIVO":true,"PIEZAS":1,"TIPO":"LOTE"},"geometry":{"type":"Polygon","coordinates":[[[-79.949814,-6.09934],[-79.948068,-6.099786],[-79.947698,-6.098295],[-79.949419,-6.097858],[-79.949814,-6.09934]]]}},{"type":"Feature","properties":{"LOTE":"M11T01-41","CAMPO":"OLMOS","FUNDO":"CHALLAPAMPA","MODULO":"M11","ACTIVO":true,"PIEZAS":1,"TIPO":"LOTE"},"geometry":{"type":"Polygon","coordinates":[[[-79.949045,-6.096313],[-79.949393,-6.097787],[-79.947677,-6.098245],[-79.947316,-6.096745],[-79.949045,-6.096313]]]}},{"type":"Feature","properties":{"LOTE":"M11T02-42","CAMPO":"OLMOS","FUNDO":"CHALLAPAMPA","MODULO":"M11","ACTIVO":true,"PIEZAS":2,"TIPO":"LOTE"},"geometry":{"type":"MultiPolygon","coordinates":[[[[-79.948676,-6.102398],[-79.948814,-6.102956],[-79.948196,-6.103123],[-79.948676,-6.102398]]],[[[-79.948027,-6.099886],[-79.948419,-6.101355],[-79.946616,-6.101751],[-79.94623,-6.10033],[-79.948027,-6.099886]]]]}},{"type":"Feature","properties":{"LOTE":"M11T02-42B","CAMPO":"OLMOS","FUNDO":"CHALLAPAMPA","MODULO":"M11","ACTIVO":true,"PIEZAS":1,"TIPO":"LOTE"},"geometry":{"type":"Polygon","coordinates":[[[-79.948627,-6.102245],[-79.948059,-6.103092],[-79.947002,-6.103419],[-79.946628,-6.101926],[-79.94845,-6.101489],[-79.948627,-6.102245]]]}},{"type":"Feature","properties":{"LOTE":"M11T02-43","CAMPO":"OLMOS","FUNDO":"CHALLAPAMPA","MODULO":"M11","ACTIVO":true,"PIEZAS":1,"TIPO":"LOTE"},"geometry":{"type":"Polygon","coordinates":[[[-79.947634,-6.098335],[-79.948015,-6.099822],[-79.946228,-6.100275],[-79.945822,-6.098786],[-79.947634,-6.098335]]]}},{"type":"Feature","properties":{"LOTE":"M11T02-44","CAMPO":"OLMOS","FUNDO":"CHALLAPAMPA","MODULO":"M11","ACTIVO":true,"PIEZAS":1,"TIPO":"LOTE"},"geometry":{"type":"Polygon","coordinates":[[[-79.947226,-6.096752],[-79.947627,-6.098264],[-79.945818,-6.098734],[-79.945516,-6.097582],[-79.945823,-6.09712],[-79.947226,-6.096752]]]}},{"type":"Feature","properties":{"LOTE":"M11T02-45","CAMPO":"OLMOS","FUNDO":"CHALLAPAMPA","MODULO":"M11","ACTIVO":true,"PIEZAS":1,"TIPO":"LOTE"},"geometry":{"type":"Polygon","coordinates":[[[-79.946915,-6.095579],[-79.947232,-6.096686],[-79.945853,-6.097035],[-79.946915,-6.095579]]]}},{"type":"Feature","properties":{"LOTE":"M11T03-46","CAMPO":"OLMOS","FUNDO":"CHALLAPAMPA","MODULO":"M11","ACTIVO":true,"PIEZAS":1,"TIPO":"LOTE"},"geometry":{"type":"Polygon","coordinates":[[[-79.948632,-6.09472],[-79.949025,-6.096214],[-79.947296,-6.096658],[-79.946996,-6.095464],[-79.947216,-6.095079],[-79.948632,-6.09472]]]}},{"type":"Feature","properties":{"LOTE":"M11T03-47","CAMPO":"OLMOS","FUNDO":"CHALLAPAMPA","MODULO":"M11","ACTIVO":true,"PIEZAS":1,"TIPO":"LOTE"},"geometry":{"type":"Polygon","coordinates":[[[-79.948518,-6.094223],[-79.948626,-6.094647],[-79.947321,-6.095004],[-79.947974,-6.094048],[-79.948149,-6.093998],[-79.94825,-6.094114],[-79.948518,-6.094223]]]}},{"type":"Feature","properties":{"LOTE":"M11T03-48","CAMPO":"OLMOS","FUNDO":"CHALLAPAMPA","MODULO":"M11","ACTIVO":true,"PIEZAS":1,"TIPO":"LOTE"},"geometry":{"type":"Polygon","coordinates":[[[-79.946852,-6.095016],[-79.946507,-6.093601],[-79.947341,-6.093385],[-79.94783,-6.093711],[-79.947764,-6.093838],[-79.946852,-6.095016]]]}},{"type":"Feature","properties":{"LOTE":"M11T03-49","CAMPO":"OLMOS","FUNDO":"CHALLAPAMPA","MODULO":"M11","ACTIVO":true,"PIEZAS":1,"TIPO":"LOTE"},"geometry":{"type":"Polygon","coordinates":[[[-79.946753,-6.09521],[-79.945786,-6.096573],[-79.945306,-6.09671],[-79.945032,-6.095642],[-79.946753,-6.09521]]]}},{"type":"Feature","properties":{"LOTE":"M11T03-50","CAMPO":"OLMOS","FUNDO":"CHALLAPAMPA","MODULO":"M11","ACTIVO":true,"PIEZAS":1,"TIPO":"LOTE"},"geometry":{"type":"Polygon","coordinates":[[[-79.946807,-6.095104],[-79.945017,-6.095566],[-79.944666,-6.094074],[-79.946433,-6.093597],[-79.946807,-6.095104]]]}},{"type":"Feature","properties":{"LOTE":"M11T03-51","CAMPO":"OLMOS","FUNDO":"CHALLAPAMPA","MODULO":"M11","ACTIVO":true,"PIEZAS":1,"TIPO":"LOTE"},"geometry":{"type":"Polygon","coordinates":[[[-79.946411,-6.093544],[-79.944636,-6.093998],[-79.944179,-6.092264],[-79.944918,-6.092612],[-79.945786,-6.092983],[-79.946327,-6.093218],[-79.946411,-6.093544]]]}},{"type":"Feature","properties":{"LOTE":"M11T04-52","CAMPO":"OLMOS","FUNDO":"CHALLAPAMPA","MODULO":"M11","ACTIVO":true,"PIEZAS":1,"TIPO":"LOTE"},"geometry":{"type":"Polygon","coordinates":[[[-79.954173,-6.10499],[-79.954557,-6.106368],[-79.953776,-6.10657],[-79.952759,-6.106271],[-79.952538,-6.106051],[-79.952399,-6.105472],[-79.954173,-6.10499]]]}},{"type":"Feature","properties":{"LOTE":"M11T04-53","CAMPO":"OLMOS","FUNDO":"CHALLAPAMPA","MODULO":"M11","ACTIVO":true,"PIEZAS":1,"TIPO":"LOTE"},"geometry":{"type":"Polygon","coordinates":[[[-79.953818,-6.103447],[-79.954207,-6.104924],[-79.952377,-6.105396],[-79.952012,-6.103919],[-79.953818,-6.103447]]]}},{"type":"Feature","properties":{"LOTE":"M11T04-54","CAMPO":"OLMOS","FUNDO":"CHALLAPAMPA","MODULO":"M11","ACTIVO":true,"PIEZAS":1,"TIPO":"LOTE"},"geometry":{"type":"Polygon","coordinates":[[[-79.953394,-6.101879],[-79.953797,-6.103359],[-79.951974,-6.103838],[-79.951608,-6.102338],[-79.953394,-6.101879]]]}},{"type":"Feature","properties":{"LOTE":"M11T04-55","CAMPO":"OLMOS","FUNDO":"CHALLAPAMPA","MODULO":"M11","ACTIVO":true,"PIEZAS":1,"TIPO":"LOTE"},"geometry":{"type":"Polygon","coordinates":[[[-79.95161,-6.102226],[-79.951242,-6.100767],[-79.952887,-6.100325],[-79.953102,-6.100539],[-79.953386,-6.101782],[-79.95161,-6.102226]]]}},{"type":"Feature","properties":{"LOTE":"M11T04-56","CAMPO":"OLMOS","FUNDO":"CHALLAPAMPA","MODULO":"M11","ACTIVO":true,"PIEZAS":1,"TIPO":"LOTE"},"geometry":{"type":"Polygon","coordinates":[[[-79.952838,-6.100278],[-79.951247,-6.100685],[-79.950988,-6.099813],[-79.952046,-6.099541],[-79.952838,-6.100278]]]}},{"type":"Feature","properties":{"LOTE":"M11T05-101","CAMPO":"OLMOS","FUNDO":"CHALLAPAMPA","MODULO":"M11","ACTIVO":true,"PIEZAS":1,"TIPO":"LOTE"},"geometry":{"type":"Polygon","coordinates":[[[-79.947597,-6.091674],[-79.948012,-6.092737],[-79.947888,-6.092789],[-79.94641,-6.091973],[-79.947597,-6.091674]]]}},{"type":"Feature","properties":{"LOTE":"M11T05-102","CAMPO":"OLMOS","FUNDO":"CHALLAPAMPA","MODULO":"M11","ACTIVO":true,"PIEZAS":1,"TIPO":"LOTE"},"geometry":{"type":"Polygon","coordinates":[[[-79.94707,-6.090143],[-79.947574,-6.091567],[-79.946266,-6.091895],[-79.946008,-6.091758],[-79.945704,-6.090488],[-79.94707,-6.090143]]]}},{"type":"Feature","properties":{"LOTE":"M11T05-103","CAMPO":"OLMOS","FUNDO":"CHALLAPAMPA","MODULO":"M11","ACTIVO":true,"PIEZAS":1,"TIPO":"LOTE"},"geometry":{"type":"Polygon","coordinates":[[[-79.946427,-6.088459],[-79.947032,-6.090068],[-79.945672,-6.090425],[-79.945479,-6.089642],[-79.94627,-6.088504],[-79.946427,-6.088459]]]}},{"type":"Feature","properties":{"LOTE":"M11T05-104","CAMPO":"OLMOS","FUNDO":"CHALLAPAMPA","MODULO":"M11","ACTIVO":true,"PIEZAS":2,"TIPO":"LOTE"},"geometry":{"type":"MultiPolygon","coordinates":[[[[-79.945624,-6.0905],[-79.945935,-6.091738],[-79.944813,-6.091111],[-79.944735,-6.090727],[-79.945624,-6.0905]]],[[[-79.945617,-6.090421],[-79.944762,-6.090644],[-79.945329,-6.089767],[-79.945458,-6.089743],[-79.945617,-6.090421]]]]}},{"type":"Feature","properties":{"LOTE":"M12T01-57","CAMPO":"OLMOS","FUNDO":"CHALLAPAMPA","MODULO":"M12","ACTIVO":true,"PIEZAS":2,"TIPO":"LOTE"},"geometry":{"type":"MultiPolygon","coordinates":[[[[-79.945519,-6.105578],[-79.945754,-6.106486],[-79.945285,-6.107194],[-79.944077,-6.107512],[-79.943702,-6.106045],[-79.945519,-6.105578]]],[[[-79.94579,-6.106674],[-79.945901,-6.107038],[-79.945446,-6.10717],[-79.94579,-6.106674]]]]}},{"type":"Feature","properties":{"LOTE":"M12T01-58","CAMPO":"OLMOS","FUNDO":"CHALLAPAMPA","MODULO":"M12","ACTIVO":true,"PIEZAS":1,"TIPO":"LOTE"},"geometry":{"type":"Polygon","coordinates":[[[-79.94512,-6.104029],[-79.945494,-6.10547],[-79.943715,-6.105921],[-79.943306,-6.104462],[-79.94512,-6.104029]]]}},{"type":"Feature","properties":{"LOTE":"M12T01-59","CAMPO":"OLMOS","FUNDO":"CHALLAPAMPA","MODULO":"M12","ACTIVO":true,"PIEZAS":1,"TIPO":"LOTE"},"geometry":{"type":"Polygon","coordinates":[[[-79.944721,-6.102462],[-79.945085,-6.103913],[-79.943307,-6.104373],[-79.942906,-6.102913],[-79.944721,-6.102462]]]}},{"type":"Feature","properties":{"LOTE":"M12T01-60","CAMPO":"OLMOS","FUNDO":"CHALLAPAMPA","MODULO":"M12","ACTIVO":true,"PIEZAS":1,"TIPO":"LOTE"},"geometry":{"type":"Polygon","coordinates":[[[-79.94428,-6.100868],[-79.944698,-6.102354],[-79.942893,-6.102796],[-79.942608,-6.101708],[-79.942955,-6.101186],[-79.94428,-6.100868]]]}},{"type":"Feature","properties":{"LOTE":"M12T02-61","CAMPO":"OLMOS","FUNDO":"CHALLAPAMPA","MODULO":"M12","ACTIVO":true,"PIEZAS":2,"TIPO":"LOTE"},"geometry":{"type":"MultiPolygon","coordinates":[[[[-79.946981,-6.103539],[-79.947181,-6.104282],[-79.946637,-6.105204],[-79.945553,-6.105466],[-79.945187,-6.103997],[-79.946981,-6.103539]]],[[[-79.947241,-6.104532],[-79.947363,-6.105006],[-79.946836,-6.105134],[-79.947241,-6.104532]]]]}},{"type":"Feature","properties":{"LOTE":"M12T02-62","CAMPO":"OLMOS","FUNDO":"CHALLAPAMPA","MODULO":"M12","ACTIVO":true,"PIEZAS":1,"TIPO":"LOTE"},"geometry":{"type":"Polygon","coordinates":[[[-79.946593,-6.101955],[-79.946946,-6.103432],[-79.945158,-6.103876],[-79.944798,-6.102414],[-79.946593,-6.101955]]]}},{"type":"Feature","properties":{"LOTE":"M12T02-63","CAMPO":"OLMOS","FUNDO":"CHALLAPAMPA","MODULO":"M12","ACTIVO":true,"PIEZAS":1,"TIPO":"LOTE"},"geometry":{"type":"Polygon","coordinates":[[[-79.946183,-6.100378],[-79.946551,-6.101855],[-79.944763,-6.102328],[-79.944388,-6.100844],[-79.946183,-6.100378]]]}},{"type":"Feature","properties":{"LOTE":"M12T02-64","CAMPO":"OLMOS","FUNDO":"CHALLAPAMPA","MODULO":"M12","ACTIVO":true,"PIEZAS":1,"TIPO":"LOTE"},"geometry":{"type":"Polygon","coordinates":[[[-79.945762,-6.098801],[-79.946166,-6.100299],[-79.944385,-6.100765],[-79.944053,-6.099632],[-79.944385,-6.099159],[-79.945762,-6.098801]]]}},{"type":"Feature","properties":{"LOTE":"M12T03-65","CAMPO":"OLMOS","FUNDO":"CHALLAPAMPA","MODULO":"M12","ACTIVO":true,"PIEZAS":2,"TIPO":"LOTE"},"geometry":{"type":"MultiPolygon","coordinates":[[[[-79.943851,-6.099356],[-79.942737,-6.100968],[-79.942431,-6.101072],[-79.94212,-6.099777],[-79.943851,-6.099356]]],[[[-79.944274,-6.100784],[-79.94308,-6.101097],[-79.944,-6.099693],[-79.944274,-6.100784]]]]}},{"type":"Feature","properties":{"LOTE":"M12T03-66","CAMPO":"OLMOS","FUNDO":"CHALLAPAMPA","MODULO":"M12","ACTIVO":true,"PIEZAS":1,"TIPO":"LOTE"},"geometry":{"type":"Polygon","coordinates":[[[-79.943503,-6.097763],[-79.943901,-6.099196],[-79.9421,-6.099673],[-79.941712,-6.098219],[-79.943503,-6.097763]]]}},{"type":"Feature","properties":{"LOTE":"M12T03-67","CAMPO":"OLMOS","FUNDO":"CHALLAPAMPA","MODULO":"M12","ACTIVO":true,"PIEZAS":1,"TIPO":"LOTE"},"geometry":{"type":"Polygon","coordinates":[[[-79.943104,-6.096156],[-79.943486,-6.097649],[-79.94169,-6.0981],[-79.941313,-6.096645],[-79.943104,-6.096156]]]}},{"type":"Feature","properties":{"LOTE":"M12T03-68","CAMPO":"OLMOS","FUNDO":"CHALLAPAMPA","MODULO":"M12","ACTIVO":true,"PIEZAS":2,"TIPO":"LOTE"},"geometry":{"type":"MultiPolygon","coordinates":[[[[-79.94258,-6.094095],[-79.942684,-6.094524],[-79.942089,-6.094655],[-79.942449,-6.094166],[-79.94258,-6.094095]]],[[[-79.942728,-6.094627],[-79.943099,-6.096066],[-79.941298,-6.096549],[-79.941145,-6.095974],[-79.941958,-6.094801],[-79.942728,-6.094627]]]]}},{"type":"Feature","properties":{"LOTE":"M12T04-69","CAMPO":"OLMOS","FUNDO":"CHALLAPAMPA","MODULO":"M12","ACTIVO":true,"PIEZAS":2,"TIPO":"LOTE"},"geometry":{"type":"MultiPolygon","coordinates":[[[[-79.945267,-6.097253],[-79.943971,-6.099193],[-79.943563,-6.097701],[-79.945267,-6.097253]]],[[[-79.945502,-6.097744],[-79.945761,-6.098708],[-79.944477,-6.099089],[-79.944891,-6.098451],[-79.945348,-6.0978],[-79.945502,-6.097744]]]]}},{"type":"Feature","properties":{"LOTE":"M12T04-70","CAMPO":"OLMOS","FUNDO":"CHALLAPAMPA","MODULO":"M12","ACTIVO":true,"PIEZAS":1,"TIPO":"LOTE"},"geometry":{"type":"Polygon","coordinates":[[[-79.944978,-6.095686],[-79.945355,-6.097159],[-79.943558,-6.097638],[-79.943169,-6.096134],[-79.944978,-6.095686]]]}},{"type":"Feature","properties":{"LOTE":"M12T04-71","CAMPO":"OLMOS","FUNDO":"CHALLAPAMPA","MODULO":"M12","ACTIVO":true,"PIEZAS":1,"TIPO":"LOTE"},"geometry":{"type":"Polygon","coordinates":[[[-79.944583,-6.094086],[-79.944957,-6.095601],[-79.943158,-6.096075],[-79.942764,-6.094556],[-79.944583,-6.094086]]]}},{"type":"Feature","properties":{"LOTE":"M12T04-72","CAMPO":"OLMOS","FUNDO":"CHALLAPAMPA","MODULO":"M12","ACTIVO":true,"PIEZAS":1,"TIPO":"LOTE"},"geometry":{"type":"Polygon","coordinates":[[[-79.944551,-6.094017],[-79.942777,-6.094484],[-79.94261,-6.093924],[-79.943497,-6.09273],[-79.943842,-6.092263],[-79.944092,-6.092222],[-79.944551,-6.094017]]]}},{"type":"Feature","properties":{"LOTE":"M13T01-73","CAMPO":"OLMOS","FUNDO":"CHALLAPAMPA","MODULO":"M13","ACTIVO":true,"PIEZAS":1,"TIPO":"LOTE"},"geometry":{"type":"Polygon","coordinates":[[[-79.942066,-6.099811],[-79.942425,-6.101257],[-79.940618,-6.10173],[-79.940281,-6.100267],[-79.942066,-6.099811]]]}},{"type":"Feature","properties":{"LOTE":"M13T01-74","CAMPO":"OLMOS","FUNDO":"CHALLAPAMPA","MODULO":"M13","ACTIVO":true,"PIEZAS":1,"TIPO":"LOTE"},"geometry":{"type":"Polygon","coordinates":[[[-79.941651,-6.098234],[-79.942022,-6.09969],[-79.940225,-6.100147],[-79.939872,-6.09869],[-79.941651,-6.098234]]]}},{"type":"Feature","properties":{"LOTE":"M13T01-75","CAMPO":"OLMOS","FUNDO":"CHALLAPAMPA","MODULO":"M13","ACTIVO":true,"PIEZAS":2,"TIPO":"LOTE"},"geometry":{"type":"MultiPolygon","coordinates":[[[[-79.941095,-6.09608],[-79.941228,-6.096577],[-79.940599,-6.09673],[-79.941095,-6.09608]]],[[[-79.941253,-6.096673],[-79.94164,-6.098107],[-79.939805,-6.098591],[-79.939678,-6.097987],[-79.940485,-6.096865],[-79.941253,-6.096673]]]]}},{"type":"Feature","properties":{"LOTE":"M13T01-76","CAMPO":"OLMOS","FUNDO":"CHALLAPAMPA","MODULO":"M13","ACTIVO":true,"PIEZAS":2,"TIPO":"LOTE"},"geometry":{"type":"MultiPolygon","coordinates":[[[[-79.939635,-6.09806],[-79.939774,-6.098621],[-79.939095,-6.09876],[-79.939635,-6.09806]]],[[[-79.939792,-6.098718],[-79.940168,-6.100195],[-79.938355,-6.100629],[-79.938203,-6.100044],[-79.93898,-6.098917],[-79.939792,-6.098718]]]]}},{"type":"Feature","properties":{"LOTE":"M13T02-77","CAMPO":"OLMOS","FUNDO":"CHALLAPAMPA","MODULO":"M13","ACTIVO":true,"PIEZAS":1,"TIPO":"LOTE"},"geometry":{"type":"Polygon","coordinates":[[[-79.940199,-6.100292],[-79.94055,-6.101745],[-79.938779,-6.102191],[-79.938379,-6.100762],[-79.940199,-6.100292]]]}},{"type":"Feature","properties":{"LOTE":"M13T02-78","CAMPO":"OLMOS","FUNDO":"CHALLAPAMPA","MODULO":"M13","ACTIVO":true,"PIEZAS":1,"TIPO":"LOTE"},"geometry":{"type":"Polygon","coordinates":[[[-79.938805,-6.102329],[-79.94017,-6.101991],[-79.940528,-6.10341],[-79.939157,-6.103754],[-79.938805,-6.102329]]]}},{"type":"Feature","properties":{"LOTE":"M13T02-79","CAMPO":"OLMOS","FUNDO":"CHALLAPAMPA","MODULO":"M13","ACTIVO":true,"PIEZAS":1,"TIPO":"LOTE"},"geometry":{"type":"Polygon","coordinates":[[[-79.938722,-6.102344],[-79.939096,-6.103797],[-79.9373,-6.104264],[-79.936934,-6.10277],[-79.938722,-6.102344]]]}},{"type":"Feature","properties":{"LOTE":"M13T02-80","CAMPO":"OLMOS","FUNDO":"CHALLAPAMPA","MODULO":"M13","ACTIVO":true,"PIEZAS":2,"TIPO":"LOTE"},"geometry":{"type":"MultiPolygon","coordinates":[[[[-79.938318,-6.100769],[-79.938715,-6.102207],[-79.936903,-6.102673],[-79.936744,-6.102033],[-79.937507,-6.10095],[-79.938318,-6.100769]]],[[[-79.938159,-6.100144],[-79.938278,-6.100634],[-79.937603,-6.100824],[-79.938159,-6.100144]]]]}},{"type":"Feature","properties":{"LOTE":"M13T03-81","CAMPO":"OLMOS","FUNDO":"CHALLAPAMPA","MODULO":"M13","ACTIVO":true,"PIEZAS":1,"TIPO":"LOTE"},"geometry":{"type":"Polygon","coordinates":[[[-79.940552,-6.103515],[-79.940935,-6.104984],[-79.939559,-6.105315],[-79.939181,-6.103871],[-79.940552,-6.103515]]]}},{"type":"Feature","properties":{"LOTE":"M13T03-82","CAMPO":"OLMOS","FUNDO":"CHALLAPAMPA","MODULO":"M13","ACTIVO":true,"PIEZAS":1,"TIPO":"LOTE"},"geometry":{"type":"Polygon","coordinates":[[[-79.939125,-6.103899],[-79.939495,-6.105329],[-79.937687,-6.105796],[-79.937329,-6.104325],[-79.939125,-6.103899]]]}},{"type":"Feature","properties":{"LOTE":"M13T03-83","CAMPO":"OLMOS","FUNDO":"CHALLAPAMPA","MODULO":"M13","ACTIVO":true,"PIEZAS":1,"TIPO":"LOTE"},"geometry":{"type":"Polygon","coordinates":[[[-79.940949,-6.105066],[-79.941307,-6.106522],[-79.939949,-6.106897],[-79.939584,-6.105428],[-79.940949,-6.105066]]]}},{"type":"Feature","properties":{"LOTE":"M13T03-84","CAMPO":"OLMOS","FUNDO":"CHALLAPAMPA","MODULO":"M13","ACTIVO":true,"PIEZAS":1,"TIPO":"LOTE"},"geometry":{"type":"Polygon","coordinates":[[[-79.939536,-6.105449],[-79.939894,-6.106908],[-79.93811,-6.107352],[-79.937728,-6.10591],[-79.939536,-6.105449]]]}},{"type":"Feature","properties":{"LOTE":"M13T04-85","CAMPO":"OLMOS","FUNDO":"CHALLAPAMPA","MODULO":"M13","ACTIVO":true,"PIEZAS":1,"TIPO":"LOTE"},"geometry":{"type":"Polygon","coordinates":[[[-79.937689,-6.105925],[-79.938036,-6.107376],[-79.93626,-6.107849],[-79.935853,-6.106399],[-79.937689,-6.105925]]]}},{"type":"Feature","properties":{"LOTE":"M13T04-86","CAMPO":"OLMOS","FUNDO":"CHALLAPAMPA","MODULO":"M13","ACTIVO":true,"PIEZAS":1,"TIPO":"LOTE"},"geometry":{"type":"Polygon","coordinates":[[[-79.935789,-6.106412],[-79.936195,-6.107855],[-79.935074,-6.108156],[-79.934749,-6.106665],[-79.935789,-6.106412]]]}},{"type":"Feature","properties":{"LOTE":"M13T04-87","CAMPO":"OLMOS","FUNDO":"CHALLAPAMPA","MODULO":"M13","ACTIVO":true,"PIEZAS":1,"TIPO":"LOTE"},"geometry":{"type":"Polygon","coordinates":[[[-79.937244,-6.104376],[-79.937647,-6.105848],[-79.935836,-6.106278],[-79.935477,-6.10482],[-79.937244,-6.104376]]]}},{"type":"Feature","properties":{"LOTE":"M13T04-88","CAMPO":"OLMOS","FUNDO":"CHALLAPAMPA","MODULO":"M13","ACTIVO":true,"PIEZAS":2,"TIPO":"LOTE"},"geometry":{"type":"MultiPolygon","coordinates":[[[[-79.935405,-6.104846],[-79.935778,-6.106322],[-79.934744,-6.10658],[-79.934424,-6.105201],[-79.934527,-6.105164],[-79.934511,-6.105061],[-79.935405,-6.104846]]],[[[-79.935211,-6.104116],[-79.935368,-6.104714],[-79.93462,-6.104935],[-79.935211,-6.104116]]]]}},{"type":"Feature","properties":{"LOTE":"M13T04-89","CAMPO":"OLMOS","FUNDO":"CHALLAPAMPA","MODULO":"M13","ACTIVO":true,"PIEZAS":2,"TIPO":"LOTE"},"geometry":{"type":"MultiPolygon","coordinates":[[[[-79.93687,-6.102794],[-79.937229,-6.104266],[-79.935441,-6.104718],[-79.935265,-6.104062],[-79.936034,-6.103005],[-79.93687,-6.102794]]],[[[-79.93669,-6.102147],[-79.936804,-6.102673],[-79.936118,-6.1029],[-79.93669,-6.102147]]]]}},{"type":"Feature","properties":{"LOTE":"M14T01-90","CAMPO":"OLMOS","FUNDO":"CHALLAPAMPA","MODULO":"M14","ACTIVO":true,"PIEZAS":1,"TIPO":"LOTE"},"geometry":{"type":"Polygon","coordinates":[[[-79.941358,-6.106585],[-79.941642,-6.107595],[-79.941708,-6.108127],[-79.940394,-6.108449],[-79.939985,-6.106952],[-79.941358,-6.106585]]]}},{"type":"Feature","properties":{"LOTE":"M14T01-91","CAMPO":"OLMOS","FUNDO":"CHALLAPAMPA","MODULO":"M14","ACTIVO":true,"PIEZAS":1,"TIPO":"LOTE"},"geometry":{"type":"Polygon","coordinates":[[[-79.940401,-6.108495],[-79.941712,-6.108158],[-79.941692,-6.10836],[-79.941742,-6.108435],[-79.941746,-6.108658],[-79.94176,-6.108867],[-79.941767,-6.108994],[-79.941728,-6.109178],[-79.941756,-6.109235],[-79.941632,-6.109511],[-79.941607,-6.109786],[-79.940767,-6.110009],[-79.940401,-6.108495]]]}},{"type":"Feature","properties":{"LOTE":"M14T01-92","CAMPO":"OLMOS","FUNDO":"CHALLAPAMPA","MODULO":"M14","ACTIVO":true,"PIEZAS":1,"TIPO":"LOTE"},"geometry":{"type":"Polygon","coordinates":[[[-79.941597,-6.109827],[-79.941365,-6.111598],[-79.941182,-6.111544],[-79.940783,-6.110057],[-79.941597,-6.109827]]]}},{"type":"Feature","properties":{"LOTE":"M14T02-93","CAMPO":"OLMOS","FUNDO":"CHALLAPAMPA","MODULO":"M14","ACTIVO":true,"PIEZAS":1,"TIPO":"LOTE"},"geometry":{"type":"Polygon","coordinates":[[[-79.93992,-6.106969],[-79.940333,-6.108468],[-79.938522,-6.108927],[-79.938117,-6.107428],[-79.93992,-6.106969]]]}},{"type":"Feature","properties":{"LOTE":"M14T02-94","CAMPO":"OLMOS","FUNDO":"CHALLAPAMPA","MODULO":"M14","ACTIVO":true,"PIEZAS":1,"TIPO":"LOTE"},"geometry":{"type":"Polygon","coordinates":[[[-79.940338,-6.108507],[-79.9407,-6.110011],[-79.938896,-6.110469],[-79.938512,-6.10897],[-79.940338,-6.108507]]]}},{"type":"Feature","properties":{"LOTE":"M14T03-95","CAMPO":"OLMOS","FUNDO":"CHALLAPAMPA","MODULO":"M14","ACTIVO":true,"PIEZAS":1,"TIPO":"LOTE"},"geometry":{"type":"Polygon","coordinates":[[[-79.940721,-6.110062],[-79.941117,-6.111565],[-79.939762,-6.111869],[-79.939254,-6.111847],[-79.938899,-6.110523],[-79.940721,-6.110062]]]}},{"type":"Feature","properties":{"LOTE":"M14T03-96","CAMPO":"OLMOS","FUNDO":"CHALLAPAMPA","MODULO":"M14","ACTIVO":true,"PIEZAS":1,"TIPO":"LOTE"},"geometry":{"type":"Polygon","coordinates":[[[-79.938851,-6.110571],[-79.939189,-6.111833],[-79.938825,-6.111838],[-79.938557,-6.111838],[-79.938203,-6.111808],[-79.937773,-6.111828],[-79.937257,-6.111878],[-79.93705,-6.111024],[-79.938851,-6.110571]]]}},{"type":"Feature","properties":{"LOTE":"M14T03-97","CAMPO":"OLMOS","FUNDO":"CHALLAPAMPA","MODULO":"M14","ACTIVO":true,"PIEZAS":1,"TIPO":"LOTE"},"geometry":{"type":"Polygon","coordinates":[[[-79.938451,-6.109027],[-79.938856,-6.1105],[-79.93704,-6.110948],[-79.936666,-6.109505],[-79.938451,-6.109027]]]}},{"type":"Feature","properties":{"LOTE":"M14T04-98","CAMPO":"OLMOS","FUNDO":"CHALLAPAMPA","MODULO":"M14","ACTIVO":true,"PIEZAS":1,"TIPO":"LOTE"},"geometry":{"type":"Polygon","coordinates":[[[-79.93806,-6.107507],[-79.938445,-6.108937],[-79.936636,-6.109425],[-79.936285,-6.107954],[-79.93806,-6.107507]]]}},{"type":"Feature","properties":{"LOTE":"M14T04-99","CAMPO":"OLMOS","FUNDO":"CHALLAPAMPA","MODULO":"M14","ACTIVO":true,"PIEZAS":1,"TIPO":"LOTE"},"geometry":{"type":"Polygon","coordinates":[[[-79.936222,-6.107967],[-79.93658,-6.109453],[-79.935415,-6.109739],[-79.935107,-6.108253],[-79.936222,-6.107967]]]}},{"type":"Feature","properties":{"LOTE":"M14T04-100","CAMPO":"OLMOS","FUNDO":"CHALLAPAMPA","MODULO":"M14","ACTIVO":true,"PIEZAS":2,"TIPO":"LOTE"},"geometry":{"type":"MultiPolygon","coordinates":[[[[-79.937005,-6.111048],[-79.937213,-6.111913],[-79.937105,-6.111932],[-79.937009,-6.111909],[-79.936734,-6.111924],[-79.936359,-6.11194],[-79.935876,-6.112059],[-79.935737,-6.111375],[-79.937005,-6.111048]]],[[[-79.936616,-6.109521],[-79.936986,-6.110958],[-79.935739,-6.111232],[-79.935456,-6.109808],[-79.936616,-6.109521]]]]}},{"type":"Feature","properties":{"LOTE":"M17T01-105","CAMPO":"OLMOS","FUNDO":"PESQUERA","MODULO":"M17","ACTIVO":true,"PIEZAS":1,"TIPO":"LOTE"},"geometry":{"type":"Polygon","coordinates":[[[-79.959974,-6.086329],[-79.960385,-6.087908],[-79.959513,-6.088082],[-79.95909,-6.08654],[-79.959974,-6.086329]]]}},{"type":"Feature","properties":{"LOTE":"M17T01-106","CAMPO":"OLMOS","FUNDO":"PESQUERA","MODULO":"M17","ACTIVO":true,"PIEZAS":1,"TIPO":"LOTE"},"geometry":{"type":"Polygon","coordinates":[[[-79.959009,-6.086583],[-79.95942,-6.088131],[-79.957577,-6.088595],[-79.957166,-6.087029],[-79.959009,-6.086583]]]}},{"type":"Feature","properties":{"LOTE":"M17T01-107","CAMPO":"OLMOS","FUNDO":"PESQUERA","MODULO":"M17","ACTIVO":true,"PIEZAS":1,"TIPO":"LOTE"},"geometry":{"type":"Polygon","coordinates":[[[-79.957054,-6.08706],[-79.957477,-6.088639],[-79.956848,-6.088775],[-79.956338,-6.087939],[-79.955964,-6.087326],[-79.957054,-6.08706]]]}},{"type":"Feature","properties":{"LOTE":"M17T01-108","CAMPO":"OLMOS","FUNDO":"PESQUERA","MODULO":"M17","ACTIVO":true,"PIEZAS":1,"TIPO":"LOTE"},"geometry":{"type":"Polygon","coordinates":[[[-79.95661,-6.08532],[-79.957044,-6.086987],[-79.955815,-6.087282],[-79.955103,-6.086749],[-79.954832,-6.085778],[-79.95661,-6.08532]]]}},{"type":"Feature","properties":{"LOTE":"M17T01-109","CAMPO":"OLMOS","FUNDO":"PESQUERA","MODULO":"M17","ACTIVO":true,"PIEZAS":1,"TIPO":"LOTE"},"geometry":{"type":"Polygon","coordinates":[[[-79.958544,-6.084846],[-79.958966,-6.086475],[-79.957132,-6.086958],[-79.956722,-6.085297],[-79.958544,-6.084846]]]}},{"type":"Feature","properties":{"LOTE":"M17T02-110","CAMPO":"OLMOS","FUNDO":"PESQUERA","MODULO":"M17","ACTIVO":true,"PIEZAS":1,"TIPO":"LOTE"},"geometry":{"type":"Polygon","coordinates":[[[-79.958675,-6.08482],[-79.959881,-6.084487],[-79.960044,-6.086172],[-79.95908,-6.086408],[-79.958675,-6.08482]]]}},{"type":"Feature","properties":{"LOTE":"M17T02-111","CAMPO":"OLMOS","FUNDO":"PESQUERA","MODULO":"M17","ACTIVO":true,"PIEZAS":1,"TIPO":"LOTE"},"geometry":{"type":"Polygon","coordinates":[[[-79.959724,-6.082713],[-79.959879,-6.084354],[-79.958617,-6.084673],[-79.958214,-6.083027],[-79.959724,-6.082713]]]}},{"type":"Feature","properties":{"LOTE":"M17T02-112","CAMPO":"OLMOS","FUNDO":"PESQUERA","MODULO":"M17","ACTIVO":true,"PIEZAS":1,"TIPO":"LOTE"},"geometry":{"type":"Polygon","coordinates":[[[-79.958121,-6.08312],[-79.958535,-6.08475],[-79.956683,-6.085244],[-79.956275,-6.083552],[-79.958121,-6.08312]]]}},{"type":"Feature","properties":{"LOTE":"M17T02-113","CAMPO":"OLMOS","FUNDO":"PESQUERA","MODULO":"M17","ACTIVO":true,"PIEZAS":1,"TIPO":"LOTE"},"geometry":{"type":"Polygon","coordinates":[[[-79.956187,-6.083634],[-79.95659,-6.085239],[-79.954811,-6.085696],[-79.954413,-6.084056],[-79.956187,-6.083634]]]}},{"type":"Feature","properties":{"LOTE":"M17T03-114","CAMPO":"OLMOS","FUNDO":"PESQUERA","MODULO":"M17","ACTIVO":true,"PIEZAS":1,"TIPO":"LOTE"},"geometry":{"type":"Polygon","coordinates":[[[-79.959724,-6.08258],[-79.958206,-6.082973],[-79.957805,-6.081343],[-79.959165,-6.08101],[-79.959724,-6.08258]]]}},{"type":"Feature","properties":{"LOTE":"M17T03-115","CAMPO":"OLMOS","FUNDO":"PESQUERA","MODULO":"M17","ACTIVO":true,"PIEZAS":1,"TIPO":"LOTE"},"geometry":{"type":"Polygon","coordinates":[[[-79.957703,-6.08139],[-79.958103,-6.083034],[-79.956254,-6.083484],[-79.955826,-6.081857],[-79.957703,-6.08139]]]}},{"type":"Feature","properties":{"LOTE":"M17T03-116","CAMPO":"OLMOS","FUNDO":"PESQUERA","MODULO":"M17","ACTIVO":true,"PIEZAS":1,"TIPO":"LOTE"},"geometry":{"type":"Polygon","coordinates":[[[-79.956152,-6.083517],[-79.956148,-6.083502],[-79.955789,-6.083587],[-79.955793,-6.083607],[-79.954365,-6.08396],[-79.953954,-6.082317],[-79.955741,-6.081869],[-79.956157,-6.083516],[-79.956152,-6.083517]]]}},{"type":"Feature","properties":{"LOTE":"M17T04-117","CAMPO":"OLMOS","FUNDO":"PESQUERA","MODULO":"M17","ACTIVO":true,"PIEZAS":1,"TIPO":"LOTE"},"geometry":{"type":"Polygon","coordinates":[[[-79.954299,-6.084106],[-79.954708,-6.085736],[-79.953767,-6.085983],[-79.952732,-6.085484],[-79.95251,-6.084548],[-79.954299,-6.084106]]]}},{"type":"Feature","properties":{"LOTE":"M17T04-118","CAMPO":"OLMOS","FUNDO":"PESQUERA","MODULO":"M17","ACTIVO":true,"PIEZAS":1,"TIPO":"LOTE"},"geometry":{"type":"Polygon","coordinates":[[[-79.95388,-6.082378],[-79.95429,-6.08397],[-79.952492,-6.08442],[-79.952087,-6.082827],[-79.95388,-6.082378]]]}},{"type":"Feature","properties":{"LOTE":"M17T04-119","CAMPO":"OLMOS","FUNDO":"PESQUERA","MODULO":"M17","ACTIVO":true,"PIEZAS":1,"TIPO":"LOTE"},"geometry":{"type":"Polygon","coordinates":[[[-79.951986,-6.082873],[-79.95238,-6.084484],[-79.951493,-6.084697],[-79.95039,-6.08403],[-79.950191,-6.083291],[-79.951986,-6.082873]]]}},{"type":"Feature","properties":{"LOTE":"M18T01-120","CAMPO":"OLMOS","FUNDO":"PESQUERA","MODULO":"M18","ACTIVO":true,"PIEZAS":1,"TIPO":"LOTE"},"geometry":{"type":"Polygon","coordinates":[[[-79.959079,-6.080835],[-79.95774,-6.081199],[-79.957381,-6.079682],[-79.958534,-6.079421],[-79.958568,-6.079627],[-79.959079,-6.080835]]]}},{"type":"Feature","properties":{"LOTE":"M18T01-121","CAMPO":"OLMOS","FUNDO":"PESQUERA","MODULO":"M18","ACTIVO":true,"PIEZAS":1,"TIPO":"LOTE"},"geometry":{"type":"Polygon","coordinates":[[[-79.95725,-6.079757],[-79.957671,-6.081254],[-79.955827,-6.081748],[-79.95542,-6.08021],[-79.95725,-6.079757]]]}},{"type":"Feature","properties":{"LOTE":"M18T01-122","CAMPO":"OLMOS","FUNDO":"PESQUERA","MODULO":"M18","ACTIVO":true,"PIEZAS":1,"TIPO":"LOTE"},"geometry":{"type":"Polygon","coordinates":[[[-79.95531,-6.080231],[-79.955717,-6.081769],[-79.953929,-6.082222],[-79.953515,-6.080691],[-79.95531,-6.080231]]]}},{"type":"Feature","properties":{"LOTE":"M18T01-123","CAMPO":"OLMOS","FUNDO":"PESQUERA","MODULO":"M18","ACTIVO":true,"PIEZAS":1,"TIPO":"LOTE"},"geometry":{"type":"Polygon","coordinates":[[[-79.953431,-6.080725],[-79.953845,-6.082263],[-79.952071,-6.082702],[-79.951636,-6.081192],[-79.953431,-6.080725]]]}},{"type":"Feature","properties":{"LOTE":"M18T02-124","CAMPO":"OLMOS","FUNDO":"PESQUERA","MODULO":"M18","ACTIVO":true,"PIEZAS":1,"TIPO":"LOTE"},"geometry":{"type":"Polygon","coordinates":[[[-79.958184,-6.077701],[-79.958463,-6.079289],[-79.95732,-6.079567],[-79.95694,-6.07801],[-79.958184,-6.077701]]]}},{"type":"Feature","properties":{"LOTE":"M18T02-125","CAMPO":"OLMOS","FUNDO":"PESQUERA","MODULO":"M18","ACTIVO":true,"PIEZAS":1,"TIPO":"LOTE"},"geometry":{"type":"Polygon","coordinates":[[[-79.956823,-6.078058],[-79.95725,-6.07959],[-79.955417,-6.080048],[-79.954978,-6.078537],[-79.956823,-6.078058]]]}},{"type":"Feature","properties":{"LOTE":"M18T02-126","CAMPO":"OLMOS","FUNDO":"PESQUERA","MODULO":"M18","ACTIVO":true,"PIEZAS":1,"TIPO":"LOTE"},"geometry":{"type":"Polygon","coordinates":[[[-79.954876,-6.078558],[-79.95529,-6.080089],[-79.953496,-6.080562],[-79.953106,-6.079039],[-79.954876,-6.078558]]]}},{"type":"Feature","properties":{"LOTE":"M18T02-127","CAMPO":"OLMOS","FUNDO":"PESQUERA","MODULO":"M18","ACTIVO":true,"PIEZAS":1,"TIPO":"LOTE"},"geometry":{"type":"Polygon","coordinates":[[[-79.953013,-6.079028],[-79.953414,-6.080618],[-79.951612,-6.081055],[-79.951198,-6.079497],[-79.953013,-6.079028]]]}},{"type":"Feature","properties":{"LOTE":"M18T02-128","CAMPO":"OLMOS","FUNDO":"PESQUERA","MODULO":"M18","ACTIVO":true,"PIEZAS":1,"TIPO":"LOTE"},"geometry":{"type":"Polygon","coordinates":[[[-79.956926,-6.077882],[-79.956535,-6.076357],[-79.957984,-6.075968],[-79.958145,-6.07763],[-79.956926,-6.077882]]]}},{"type":"Feature","properties":{"LOTE":"M18T02-129","CAMPO":"OLMOS","FUNDO":"PESQUERA","MODULO":"M18","ACTIVO":true,"PIEZAS":1,"TIPO":"LOTE"},"geometry":{"type":"Polygon","coordinates":[[[-79.956406,-6.07639],[-79.956808,-6.077938],[-79.954949,-6.078408],[-79.954547,-6.076877],[-79.956406,-6.07639]]]}},{"type":"Feature","properties":{"LOTE":"M18T02-130","CAMPO":"OLMOS","FUNDO":"PESQUERA","MODULO":"M18","ACTIVO":true,"PIEZAS":1,"TIPO":"LOTE"},"geometry":{"type":"Polygon","coordinates":[[[-79.954462,-6.076898],[-79.954867,-6.078444],[-79.953073,-6.078905],[-79.952659,-6.077371],[-79.954462,-6.076898]]]}},{"type":"Feature","properties":{"LOTE":"M18T02-131","CAMPO":"OLMOS","FUNDO":"PESQUERA","MODULO":"M18","ACTIVO":true,"PIEZAS":1,"TIPO":"LOTE"},"geometry":{"type":"Polygon","coordinates":[[[-79.95173,-6.079234],[-79.951185,-6.079382],[-79.950774,-6.077844],[-79.952583,-6.077364],[-79.952996,-6.078901],[-79.952052,-6.079149],[-79.952051,-6.079139],[-79.951724,-6.079183],[-79.95173,-6.079234]]]}},{"type":"Feature","properties":{"LOTE":"M18T04-132","CAMPO":"OLMOS","FUNDO":"PESQUERA","MODULO":"M18","ACTIVO":true,"PIEZAS":1,"TIPO":"LOTE"},"geometry":{"type":"Polygon","coordinates":[[[-79.957909,-6.075828],[-79.956511,-6.07626],[-79.956095,-6.074684],[-79.956599,-6.074548],[-79.957909,-6.075828]]]}},{"type":"Feature","properties":{"LOTE":"M18T04-133","CAMPO":"OLMOS","FUNDO":"PESQUERA","MODULO":"M18","ACTIVO":true,"PIEZAS":1,"TIPO":"LOTE"},"geometry":{"type":"Polygon","coordinates":[[[-79.955993,-6.074723],[-79.956395,-6.076278],[-79.954554,-6.07674],[-79.954157,-6.075185],[-79.955993,-6.074723]]]}},{"type":"Feature","properties":{"LOTE":"M18T02-134","CAMPO":"OLMOS","FUNDO":"PESQUERA","MODULO":"M18","ACTIVO":true,"PIEZAS":1,"TIPO":"LOTE"},"geometry":{"type":"Polygon","coordinates":[[[-79.954031,-6.075251],[-79.954432,-6.076822],[-79.95265,-6.077254],[-79.952249,-6.075691],[-79.954031,-6.075251]]]}},{"type":"Feature","properties":{"LOTE":"M18T04-135","CAMPO":"OLMOS","FUNDO":"PESQUERA","MODULO":"M18","ACTIVO":true,"PIEZAS":1,"TIPO":"LOTE"},"geometry":{"type":"Polygon","coordinates":[[[-79.952164,-6.075754],[-79.952555,-6.077289],[-79.950756,-6.077719],[-79.950375,-6.076198],[-79.952164,-6.075754]]]}},{"type":"Feature","properties":{"LOTE":"M19T01-136","CAMPO":"OLMOS","FUNDO":"PESQUERA","MODULO":"M19","ACTIVO":true,"PIEZAS":1,"TIPO":"LOTE"},"geometry":{"type":"Polygon","coordinates":[[[-79.951557,-6.081197],[-79.951985,-6.082714],[-79.950142,-6.083195],[-79.949746,-6.08167],[-79.951557,-6.081197]]]}},{"type":"Feature","properties":{"LOTE":"M19T01-137","CAMPO":"OLMOS","FUNDO":"PESQUERA","MODULO":"M19","ACTIVO":true,"PIEZAS":1,"TIPO":"LOTE"},"geometry":{"type":"Polygon","coordinates":[[[-79.951109,-6.07953],[-79.951526,-6.081089],[-79.949721,-6.081535],[-79.949332,-6.080007],[-79.951109,-6.07953]]]}},{"type":"Feature","properties":{"LOTE":"M19T01-138","CAMPO":"OLMOS","FUNDO":"PESQUERA","MODULO":"M19","ACTIVO":true,"PIEZAS":1,"TIPO":"LOTE"},"geometry":{"type":"Polygon","coordinates":[[[-79.950686,-6.07787],[-79.951098,-6.079405],[-79.949308,-6.079842],[-79.948901,-6.078326],[-79.950686,-6.07787]]]}},{"type":"Feature","properties":{"LOTE":"M19T02-139","CAMPO":"OLMOS","FUNDO":"PESQUERA","MODULO":"M19","ACTIVO":true,"PIEZAS":1,"TIPO":"LOTE"},"geometry":{"type":"Polygon","coordinates":[[[-79.949671,-6.081683],[-79.950057,-6.083256],[-79.949285,-6.083432],[-79.948054,-6.08272],[-79.947919,-6.082108],[-79.949671,-6.081683]]]}},{"type":"Feature","properties":{"LOTE":"M19T02-140","CAMPO":"OLMOS","FUNDO":"PESQUERA","MODULO":"M19","ACTIVO":true,"PIEZAS":1,"TIPO":"LOTE"},"geometry":{"type":"Polygon","coordinates":[[[-79.949222,-6.079993],[-79.94965,-6.081563],[-79.947873,-6.082012],[-79.947453,-6.080453],[-79.949222,-6.079993]]]}},{"type":"Feature","properties":{"LOTE":"M19T02-141","CAMPO":"OLMOS","FUNDO":"PESQUERA","MODULO":"M19","ACTIVO":true,"PIEZAS":1,"TIPO":"LOTE"},"geometry":{"type":"Polygon","coordinates":[[[-79.948291,-6.080113],[-79.948284,-6.080085],[-79.947927,-6.080176],[-79.947933,-6.080207],[-79.947432,-6.080343],[-79.947022,-6.078807],[-79.948811,-6.07833],[-79.949227,-6.079861],[-79.948291,-6.080113]]]}},{"type":"Feature","properties":{"LOTE":"M19T03-142","CAMPO":"OLMOS","FUNDO":"PESQUERA","MODULO":"M19","ACTIVO":true,"PIEZAS":1,"TIPO":"LOTE"},"geometry":{"type":"Polygon","coordinates":[[[-79.950223,-6.07624],[-79.950651,-6.0778],[-79.948855,-6.078237],[-79.948462,-6.076671],[-79.950223,-6.07624]]]}},{"type":"Feature","properties":{"LOTE":"M19T03-143","CAMPO":"OLMOS","FUNDO":"PESQUERA","MODULO":"M19","ACTIVO":true,"PIEZAS":1,"TIPO":"LOTE"},"geometry":{"type":"Polygon","coordinates":[[[-79.948359,-6.076691],[-79.948772,-6.078257],[-79.947006,-6.078694],[-79.946593,-6.077138],[-79.948359,-6.076691]]]}},{"type":"Feature","properties":{"LOTE":"M19T03-144","CAMPO":"OLMOS","FUNDO":"PESQUERA","MODULO":"M19","ACTIVO":true,"PIEZAS":1,"TIPO":"LOTE"},"geometry":{"type":"Polygon","coordinates":[[[-79.946502,-6.077166],[-79.946917,-6.078738],[-79.945245,-6.079141],[-79.944826,-6.077611],[-79.946502,-6.077166]]]}},{"type":"Feature","properties":{"LOTE":"M19T04-145","CAMPO":"OLMOS","FUNDO":"PESQUERA","MODULO":"M19","ACTIVO":true,"PIEZAS":1,"TIPO":"LOTE"},"geometry":{"type":"Polygon","coordinates":[[[-79.946932,-6.078826],[-79.947356,-6.08038],[-79.945523,-6.080849],[-79.945127,-6.079286],[-79.946932,-6.078826]]]}},{"type":"Feature","properties":{"LOTE":"M19T04-146","CAMPO":"OLMOS","FUNDO":"PESQUERA","MODULO":"M19","ACTIVO":true,"PIEZAS":2,"TIPO":"LOTE"},"geometry":{"type":"MultiPolygon","coordinates":[[[[-79.947789,-6.082153],[-79.947911,-6.082637],[-79.947136,-6.082288],[-79.947789,-6.082153]]],[[[-79.947342,-6.080483],[-79.947763,-6.082074],[-79.94705,-6.082229],[-79.945687,-6.081482],[-79.945558,-6.080936],[-79.947342,-6.080483]]]]}},{"type":"Feature","properties":{"LOTE":"M19T04-147","CAMPO":"OLMOS","FUNDO":"PESQUERA","MODULO":"M19","ACTIVO":true,"PIEZAS":1,"TIPO":"LOTE"},"geometry":{"type":"Polygon","coordinates":[[[-79.945051,-6.079332],[-79.945139,-6.079791],[-79.945139,-6.080024],[-79.945086,-6.080175],[-79.944958,-6.080314],[-79.944759,-6.08036],[-79.944549,-6.080337],[-79.944105,-6.079536],[-79.945051,-6.079332]]]}},{"type":"Feature","properties":{"LOTE":"M19T04-148","CAMPO":"OLMOS","FUNDO":"PESQUERA","MODULO":"M19","ACTIVO":true,"PIEZAS":1,"TIPO":"LOTE"},"geometry":{"type":"Polygon","coordinates":[[[-79.94459,-6.077671],[-79.945028,-6.079222],[-79.944023,-6.079449],[-79.943363,-6.07795],[-79.94459,-6.077671]]]}},{"type":"Feature","properties":{"LOTE":"M20T01-149","CAMPO":"OLMOS","FUNDO":"PESQUERA","MODULO":"M20","ACTIVO":true,"PIEZAS":1,"TIPO":"LOTE"},"geometry":{"type":"Polygon","coordinates":[[[-79.955559,-6.087458],[-79.956501,-6.088925],[-79.955667,-6.089145],[-79.95527,-6.087531],[-79.955559,-6.087458]]]}},{"type":"Feature","properties":{"LOTE":"M20T01-150","CAMPO":"OLMOS","FUNDO":"PESQUERA","MODULO":"M20","ACTIVO":true,"PIEZAS":1,"TIPO":"LOTE"},"geometry":{"type":"Polygon","coordinates":[[[-79.955187,-6.087557],[-79.955599,-6.089182],[-79.953804,-6.089629],[-79.953409,-6.087991],[-79.955187,-6.087557]]]}},{"type":"Feature","properties":{"LOTE":"M20T03-151","CAMPO":"OLMOS","FUNDO":"PESQUERA","MODULO":"M20","ACTIVO":true,"PIEZAS":2,"TIPO":"LOTE"},"geometry":{"type":"MultiPolygon","coordinates":[[[[-79.95472,-6.085802],[-79.954938,-6.086668],[-79.953891,-6.086003],[-79.95472,-6.085802]]],[[[-79.955138,-6.08744],[-79.953331,-6.087877],[-79.952944,-6.086211],[-79.953337,-6.086164],[-79.955085,-6.087164],[-79.955138,-6.08744]]]]}},{"type":"Feature","properties":{"LOTE":"M20T01-152","CAMPO":"OLMOS","FUNDO":"PESQUERA","MODULO":"M20","ACTIVO":true,"PIEZAS":1,"TIPO":"LOTE"},"geometry":{"type":"Polygon","coordinates":[[[-79.953284,-6.088041],[-79.953683,-6.089645],[-79.951922,-6.0901],[-79.951688,-6.089134],[-79.951531,-6.088467],[-79.953284,-6.088041]]]}},{"type":"Feature","properties":{"LOTE":"M20T02-153","CAMPO":"OLMOS","FUNDO":"PESQUERA","MODULO":"M20","ACTIVO":true,"PIEZAS":1,"TIPO":"LOTE"},"geometry":{"type":"Polygon","coordinates":[[[-79.951399,-6.088536],[-79.951791,-6.090111],[-79.95003,-6.090556],[-79.949658,-6.088962],[-79.951399,-6.088536]]]}},{"type":"Feature","properties":{"LOTE":"M20T02-154","CAMPO":"OLMOS","FUNDO":"PESQUERA","MODULO":"M20","ACTIVO":true,"PIEZAS":1,"TIPO":"LOTE"},"geometry":{"type":"Polygon","coordinates":[[[-79.949532,-6.089027],[-79.949956,-6.090606],[-79.948424,-6.090977],[-79.947982,-6.089416],[-79.949532,-6.089027]]]}},{"type":"Feature","properties":{"LOTE":"M20T02-155","CAMPO":"OLMOS","FUNDO":"PESQUERA","MODULO":"M20","ACTIVO":true,"PIEZAS":1,"TIPO":"LOTE"},"geometry":{"type":"Polygon","coordinates":[[[-79.949084,-6.087271],[-79.949483,-6.088913],[-79.947745,-6.089323],[-79.947327,-6.087747],[-79.949084,-6.087271]]]}},{"type":"Feature","properties":{"LOTE":"M20T02-156","CAMPO":"OLMOS","FUNDO":"PESQUERA","MODULO":"M20","ACTIVO":true,"PIEZAS":1,"TIPO":"LOTE"},"geometry":{"type":"Polygon","coordinates":[[[-79.950967,-6.086768],[-79.951388,-6.088426],[-79.94961,-6.088868],[-79.949191,-6.087212],[-79.950226,-6.086951],[-79.950242,-6.087015],[-79.950424,-6.086979],[-79.950411,-6.086908],[-79.950967,-6.086768]]]}},{"type":"Feature","properties":{"LOTE":"M20T03-157","CAMPO":"OLMOS","FUNDO":"PESQUERA","MODULO":"M20","ACTIVO":true,"PIEZAS":1,"TIPO":"LOTE"},"geometry":{"type":"Polygon","coordinates":[[[-79.952847,-6.086308],[-79.953259,-6.087938],[-79.95149,-6.088372],[-79.951073,-6.086754],[-79.952847,-6.086308]]]}},{"type":"Feature","properties":{"LOTE":"M20T03-158","CAMPO":"OLMOS","FUNDO":"PESQUERA","MODULO":"M20","ACTIVO":true,"PIEZAS":2,"TIPO":"LOTE"},"geometry":{"type":"MultiPolygon","coordinates":[[[[-79.952423,-6.084591],[-79.952622,-6.085355],[-79.951657,-6.084762],[-79.952423,-6.084591]]],[[[-79.952747,-6.085789],[-79.952802,-6.086214],[-79.951061,-6.086657],[-79.950621,-6.085018],[-79.951107,-6.084894],[-79.952747,-6.085789]]]]}},{"type":"Feature","properties":{"LOTE":"M20T03-159","CAMPO":"OLMOS","FUNDO":"PESQUERA","MODULO":"M20","ACTIVO":true,"PIEZAS":1,"TIPO":"LOTE"},"geometry":{"type":"Polygon","coordinates":[[[-79.950533,-6.085059],[-79.950951,-6.086684],[-79.949165,-6.087114],[-79.948756,-6.085483],[-79.950533,-6.085059]]]}},{"type":"Feature","properties":{"LOTE":"M20T03-160","CAMPO":"OLMOS","FUNDO":"PESQUERA","MODULO":"M20","ACTIVO":true,"PIEZAS":2,"TIPO":"LOTE"},"geometry":{"type":"MultiPolygon","coordinates":[[[[-79.950091,-6.083332],[-79.95027,-6.083984],[-79.9494,-6.083516],[-79.950091,-6.083332]]],[[[-79.950456,-6.084946],[-79.948725,-6.085402],[-79.948312,-6.08376],[-79.948908,-6.083617],[-79.950388,-6.084449],[-79.950456,-6.084946]]]]}},{"type":"Feature","properties":{"LOTE":"M20T04-161","CAMPO":"OLMOS","FUNDO":"PESQUERA","MODULO":"M20","ACTIVO":true,"PIEZAS":2,"TIPO":"LOTE"},"geometry":{"type":"MultiPolygon","coordinates":[[[[-79.948661,-6.085566],[-79.949065,-6.087155],[-79.94727,-6.087594],[-79.946875,-6.086],[-79.948661,-6.085566]]],[[[-79.946787,-6.086068],[-79.947054,-6.087059],[-79.946801,-6.087141],[-79.946558,-6.086077],[-79.946766,-6.086033],[-79.946787,-6.086068]]]]}},{"type":"Feature","properties":{"LOTE":"M20T04-162","CAMPO":"OLMOS","FUNDO":"PESQUERA","MODULO":"M20","ACTIVO":true,"PIEZAS":2,"TIPO":"LOTE"},"geometry":{"type":"MultiPolygon","coordinates":[[[[-79.94821,-6.083834],[-79.948634,-6.085442],[-79.946839,-6.085904],[-79.946449,-6.084279],[-79.94821,-6.083834]]],[[[-79.946323,-6.08433],[-79.946753,-6.085916],[-79.946392,-6.085995],[-79.945967,-6.084399],[-79.946323,-6.08433]]]]}},{"type":"Feature","properties":{"LOTE":"M20T04-163","CAMPO":"OLMOS","FUNDO":"PESQUERA","MODULO":"M20","ACTIVO":true,"PIEZAS":2,"TIPO":"LOTE"},"geometry":{"type":"MultiPolygon","coordinates":[[[[-79.94875,-6.083546],[-79.94828,-6.083678],[-79.948183,-6.083199],[-79.94875,-6.083546]]],[[[-79.948177,-6.083683],[-79.946411,-6.084139],[-79.946021,-6.082606],[-79.946732,-6.082395],[-79.948068,-6.08317],[-79.948177,-6.083683]]]]}},{"type":"Feature","properties":{"LOTE":"M20T04-164","CAMPO":"OLMOS","FUNDO":"PESQUERA","MODULO":"M20","ACTIVO":true,"PIEZAS":3,"TIPO":"LOTE"},"geometry":{"type":"MultiPolygon","coordinates":[[[[-79.945895,-6.082663],[-79.946296,-6.084219],[-79.945866,-6.084322],[-79.945436,-6.082759],[-79.945895,-6.082663]]],[[[-79.946585,-6.082305],[-79.945971,-6.082488],[-79.945822,-6.081883],[-79.946585,-6.082305]]],[[[-79.945724,-6.081826],[-79.945862,-6.082533],[-79.945214,-6.082721],[-79.944904,-6.081575],[-79.945157,-6.081501],[-79.945203,-6.081553],[-79.945724,-6.081826]]]]}},{"type":"Feature","properties":{"LOTE":"M02T03-15","CAMPO":"MOTUPE","FUNDO":"CHOLOQUE","MODULO":"M02","ACTIVO":true,"PIEZAS":1,"TIPO":"LOTE"},"geometry":{"type":"Polygon","coordinates":[[[-79.73467,-6.223868],[-79.734676,-6.224189],[-79.734627,-6.225063],[-79.734627,-6.225143],[-79.734694,-6.22524],[-79.73467,-6.225678],[-79.734621,-6.22573],[-79.734599,-6.225965],[-79.733698,-6.225971],[-79.733676,-6.225656],[-79.733557,-6.225598],[-79.73343,-6.225647],[-79.733184,-6.225559],[-79.733494,-6.225336],[-79.733817,-6.224958],[-79.734223,-6.224261],[-79.73467,-6.223868]]]}},{"type":"Feature","properties":{"LOTE":"M02T03-16","CAMPO":"MOTUPE","FUNDO":"CHOLOQUE","MODULO":"M02","ACTIVO":true,"PIEZAS":2,"TIPO":"LOTE"},"geometry":{"type":"MultiPolygon","coordinates":[[[[-79.735128,-6.225798],[-79.73532,-6.226245],[-79.735618,-6.226132],[-79.735569,-6.225963],[-79.735722,-6.225867],[-79.735628,-6.225649],[-79.735675,-6.225624],[-79.735867,-6.226087],[-79.735813,-6.226285],[-79.735886,-6.226529],[-79.735363,-6.226864],[-79.734994,-6.226105],[-79.734998,-6.225946],[-79.735128,-6.225798]]],[[[-79.735671,-6.225529],[-79.735024,-6.225573],[-79.735007,-6.225316],[-79.735143,-6.225308],[-79.735107,-6.224919],[-79.735349,-6.224879],[-79.735616,-6.224865],[-79.735638,-6.225008],[-79.735671,-6.225529]]]]}},{"type":"Feature","properties":{"LOTE":"M02T03-17","CAMPO":"MOTUPE","FUNDO":"CHOLOQUE","MODULO":"M02","ACTIVO":true,"PIEZAS":1,"TIPO":"LOTE"},"geometry":{"type":"Polygon","coordinates":[[[-79.73371,-6.226048],[-79.734778,-6.226034],[-79.735208,-6.226912],[-79.735194,-6.227225],[-79.734681,-6.227211],[-79.734422,-6.227183],[-79.734172,-6.227073],[-79.734001,-6.227137],[-79.733853,-6.227321],[-79.733784,-6.227487],[-79.733733,-6.227445],[-79.73371,-6.226048]]]}},{"type":"Feature","properties":{"LOTE":"M02T03-18","CAMPO":"MOTUPE","FUNDO":"CHOLOQUE","MODULO":"M02","ACTIVO":true,"PIEZAS":1,"TIPO":"LOTE"},"geometry":{"type":"Polygon","coordinates":[[[-79.731757,-6.228211],[-79.731731,-6.227964],[-79.731782,-6.227536],[-79.731782,-6.227203],[-79.732015,-6.22682],[-79.732442,-6.226431],[-79.732842,-6.226169],[-79.733355,-6.226094],[-79.733633,-6.226139],[-79.733628,-6.227909],[-79.733507,-6.227939],[-79.733461,-6.228075],[-79.733415,-6.228257],[-79.732644,-6.228262],[-79.731929,-6.228242],[-79.731757,-6.228211]]]}},{"type":"Feature","properties":{"LOTE":"M02T03-19","CAMPO":"MOTUPE","FUNDO":"CHOLOQUE","MODULO":"M02","ACTIVO":true,"PIEZAS":1,"TIPO":"LOTE"},"geometry":{"type":"Polygon","coordinates":[[[-79.733437,-6.228298],[-79.733485,-6.228612],[-79.733945,-6.228721],[-79.734309,-6.228687],[-79.734274,-6.229922],[-79.73422,-6.230325],[-79.733506,-6.229888],[-79.733046,-6.229567],[-79.732668,-6.229226],[-79.73229,-6.228748],[-79.732222,-6.228659],[-79.732023,-6.228714],[-79.731776,-6.228653],[-79.731748,-6.228284],[-79.733437,-6.228298]]]}},{"type":"Feature","properties":{"LOTE":"M06T01-01","CAMPO":"MOTUPE","FUNDO":"FRANCO I","MODULO":"M06","ACTIVO":true,"PIEZAS":1,"TIPO":"LOTE"},"geometry":{"type":"Polygon","coordinates":[[[-79.735273,-6.207238],[-79.735327,-6.207349],[-79.735376,-6.207793],[-79.735484,-6.208902],[-79.734133,-6.209082],[-79.733988,-6.207358],[-79.735273,-6.207238]]]}},{"type":"Feature","properties":{"LOTE":"M06T01-02","CAMPO":"MOTUPE","FUNDO":"FRANCO I","MODULO":"M06","ACTIVO":true,"PIEZAS":2,"TIPO":"LOTE"},"geometry":{"type":"MultiPolygon","coordinates":[[[[-79.735172,-6.205785],[-79.735299,-6.207157],[-79.733986,-6.207317],[-79.733845,-6.205898],[-79.735172,-6.205785]]],[[[-79.735129,-6.205318],[-79.735168,-6.205737],[-79.733817,-6.205874],[-79.733782,-6.205466],[-79.735129,-6.205318]]]]}},{"type":"Feature","properties":{"LOTE":"M06T01-03","CAMPO":"MOTUPE","FUNDO":"FRANCO I","MODULO":"M06","ACTIVO":true,"PIEZAS":1,"TIPO":"LOTE"},"geometry":{"type":"Polygon","coordinates":[[[-79.737258,-6.206983],[-79.737336,-6.207001],[-79.737366,-6.207385],[-79.737433,-6.207427],[-79.737541,-6.208404],[-79.737614,-6.208572],[-79.737638,-6.208758],[-79.737445,-6.208734],[-79.737053,-6.208722],[-79.736594,-6.20877],[-79.736196,-6.208842],[-79.73555,-6.208902],[-79.73546,-6.208026],[-79.735376,-6.207187],[-79.737258,-6.206983]]]}},{"type":"Feature","properties":{"LOTE":"M06T01-04","CAMPO":"MOTUPE","FUNDO":"FRANCO I","MODULO":"M06","ACTIVO":true,"PIEZAS":1,"TIPO":"LOTE"},"geometry":{"type":"Polygon","coordinates":[[[-79.737,-6.205121],[-79.737025,-6.205304],[-79.737064,-6.205614],[-79.737119,-6.205668],[-79.737208,-6.206357],[-79.737272,-6.206509],[-79.737312,-6.206923],[-79.735361,-6.207154],[-79.735203,-6.205308],[-79.737,-6.205121]]]}},{"type":"Feature","properties":{"LOTE":"M06T02-05","CAMPO":"MOTUPE","FUNDO":"FRANCO I","MODULO":"M06","ACTIVO":true,"PIEZAS":1,"TIPO":"LOTE"},"geometry":{"type":"Polygon","coordinates":[[[-79.736739,-6.203276],[-79.736792,-6.203752],[-79.73687,-6.204487],[-79.736937,-6.204588],[-79.737,-6.205077],[-79.735188,-6.20527],[-79.73501,-6.203444],[-79.736739,-6.203276]]]}},{"type":"Feature","properties":{"LOTE":"M06T02-06","CAMPO":"MOTUPE","FUNDO":"FRANCO I","MODULO":"M06","ACTIVO":true,"PIEZAS":1,"TIPO":"LOTE"},"geometry":{"type":"Polygon","coordinates":[[[-79.735037,-6.204332],[-79.735127,-6.205268],[-79.733773,-6.205425],[-79.733653,-6.204459],[-79.735037,-6.204332]]]}},{"type":"Feature","properties":{"LOTE":"M06T02-07","CAMPO":"MOTUPE","FUNDO":"FRANCO I","MODULO":"M06","ACTIVO":true,"PIEZAS":1,"TIPO":"LOTE"},"geometry":{"type":"Polygon","coordinates":[[[-79.734948,-6.20345],[-79.735029,-6.204298],[-79.733655,-6.204422],[-79.733596,-6.203589],[-79.734948,-6.20345]]]}},{"type":"Feature","properties":{"LOTE":"M06T02-08","CAMPO":"MOTUPE","FUNDO":"FRANCO I","MODULO":"M06","ACTIVO":true,"PIEZAS":1,"TIPO":"LOTE"},"geometry":{"type":"Polygon","coordinates":[[[-79.734749,-6.201593],[-79.734931,-6.203396],[-79.733579,-6.203535],[-79.733375,-6.201737],[-79.734749,-6.201593]]]}},{"type":"Feature","properties":{"LOTE":"M06T02-09","CAMPO":"MOTUPE","FUNDO":"FRANCO I","MODULO":"M06","ACTIVO":true,"PIEZAS":1,"TIPO":"LOTE"},"geometry":{"type":"Polygon","coordinates":[[[-79.734998,-6.203398],[-79.734776,-6.201575],[-79.73538,-6.201508],[-79.736539,-6.201381],[-79.736602,-6.201986],[-79.736681,-6.20266],[-79.736741,-6.20325],[-79.734998,-6.203398]]]}},{"type":"Feature","properties":{"LOTE":"M06T02-10","CAMPO":"MOTUPE","FUNDO":"FRANCO I","MODULO":"M06","ACTIVO":true,"PIEZAS":1,"TIPO":"LOTE"},"geometry":{"type":"Polygon","coordinates":[[[-79.736591,-6.201376],[-79.738044,-6.201236],[-79.7381,-6.2014],[-79.738149,-6.201463],[-79.738229,-6.201767],[-79.738273,-6.20201],[-79.738329,-6.20203],[-79.738442,-6.202984],[-79.737952,-6.203091],[-79.737619,-6.203179],[-79.737254,-6.203299],[-79.736861,-6.203418],[-79.736788,-6.203434],[-79.736664,-6.202218],[-79.736572,-6.201398],[-79.736591,-6.201376]]]}},{"type":"Feature","properties":{"LOTE":"M06T03-13","CAMPO":"MOTUPE","FUNDO":"FRANCO II","MODULO":"M06","ACTIVO":true,"PIEZAS":1,"TIPO":"LOTE"},"geometry":{"type":"Polygon","coordinates":[[[-79.723983,-6.205587],[-79.724455,-6.205602],[-79.725157,-6.205632],[-79.72519,-6.205763],[-79.725325,-6.205759],[-79.725314,-6.205629],[-79.726012,-6.205655],[-79.72756,-6.20569],[-79.727601,-6.206075],[-79.724038,-6.206419],[-79.723983,-6.205587]]]}},{"type":"Feature","properties":{"LOTE":"M06T03-14","CAMPO":"MOTUPE","FUNDO":"FRANCO II","MODULO":"M06","ACTIVO":true,"PIEZAS":1,"TIPO":"LOTE"},"geometry":{"type":"Polygon","coordinates":[[[-79.724068,-6.206491],[-79.724679,-6.206424],[-79.725321,-6.206361],[-79.725821,-6.206304],[-79.725862,-6.206722],[-79.725919,-6.207359],[-79.725992,-6.208114],[-79.724266,-6.208331],[-79.724134,-6.207029],[-79.724068,-6.206491]]]}},{"type":"Feature","properties":{"LOTE":"M06T03-15","CAMPO":"MOTUPE","FUNDO":"FRANCO II","MODULO":"M06","ACTIVO":true,"PIEZAS":1,"TIPO":"LOTE"},"geometry":{"type":"Polygon","coordinates":[[[-79.725861,-6.206299],[-79.727577,-6.206126],[-79.727702,-6.207169],[-79.727775,-6.207948],[-79.726021,-6.208111],[-79.725942,-6.207258],[-79.72589,-6.206728],[-79.725861,-6.206299]]]}},{"type":"Feature","properties":{"LOTE":"M06T03-16","CAMPO":"MOTUPE","FUNDO":"FRANCO II","MODULO":"M06","ACTIVO":true,"PIEZAS":1,"TIPO":"LOTE"},"geometry":{"type":"Polygon","coordinates":[[[-79.727776,-6.207994],[-79.727865,-6.208752],[-79.727978,-6.20981],[-79.727322,-6.209891],[-79.727241,-6.209884],[-79.727114,-6.209905],[-79.726232,-6.209975],[-79.726211,-6.209747],[-79.726109,-6.208857],[-79.726031,-6.208166],[-79.727776,-6.207994]]]}},{"type":"Feature","properties":{"LOTE":"M06T03-17","CAMPO":"MOTUPE","FUNDO":"FRANCO II","MODULO":"M06","ACTIVO":true,"PIEZAS":1,"TIPO":"LOTE"},"geometry":{"type":"Polygon","coordinates":[[[-79.724282,-6.208364],[-79.725995,-6.208165],[-79.72605,-6.208611],[-79.726121,-6.209265],[-79.726198,-6.209986],[-79.724454,-6.210168],[-79.724364,-6.209086],[-79.724282,-6.208364]]]}},{"type":"Feature","properties":{"LOTE":"M06T04-18","CAMPO":"MOTUPE","FUNDO":"FRANCO II","MODULO":"M06","ACTIVO":true,"PIEZAS":1,"TIPO":"LOTE"},"geometry":{"type":"Polygon","coordinates":[[[-79.722138,-6.205542],[-79.722652,-6.205545],[-79.722965,-6.205564],[-79.723191,-6.205533],[-79.72335,-6.205547],[-79.723406,-6.205586],[-79.723886,-6.205592],[-79.723967,-6.206441],[-79.723445,-6.206502],[-79.723005,-6.206555],[-79.722249,-6.206627],[-79.722233,-6.20648],[-79.722171,-6.205955],[-79.722138,-6.205542]]]}},{"type":"Feature","properties":{"LOTE":"M06T04-19","CAMPO":"MOTUPE","FUNDO":"FRANCO II","MODULO":"M06","ACTIVO":true,"PIEZAS":1,"TIPO":"LOTE"},"geometry":{"type":"Polygon","coordinates":[[[-79.720315,-6.20541],[-79.722095,-6.205524],[-79.722129,-6.205895],[-79.722173,-6.206344],[-79.72221,-6.206637],[-79.720461,-6.206812],[-79.720351,-6.205933],[-79.720315,-6.20541]]]}},{"type":"Feature","properties":{"LOTE":"M06T04-20","CAMPO":"MOTUPE","FUNDO":"FRANCO II","MODULO":"M06","ACTIVO":true,"PIEZAS":1,"TIPO":"LOTE"},"geometry":{"type":"Polygon","coordinates":[[[-79.718676,-6.205295],[-79.7202,-6.205404],[-79.720386,-6.20684],[-79.719983,-6.20684],[-79.719954,-6.206674],[-79.719285,-6.206674],[-79.719217,-6.206391],[-79.718794,-6.205697],[-79.718588,-6.205415],[-79.718676,-6.205295]]]}},{"type":"Feature","properties":{"LOTE":"M06T04-21","CAMPO":"MOTUPE","FUNDO":"FRANCO II","MODULO":"M06","ACTIVO":true,"PIEZAS":1,"TIPO":"LOTE"},"geometry":{"type":"Polygon","coordinates":[[[-79.722256,-6.206692],[-79.723979,-6.206497],[-79.724092,-6.207518],[-79.724177,-6.208328],[-79.723696,-6.208355],[-79.723515,-6.20838],[-79.723246,-6.208401],[-79.722964,-6.208447],[-79.722419,-6.208495],[-79.722305,-6.207226],[-79.722256,-6.206692]]]}},{"type":"Feature","properties":{"LOTE":"M06T04-22","CAMPO":"MOTUPE","FUNDO":"FRANCO II","MODULO":"M06","ACTIVO":true,"PIEZAS":2,"TIPO":"LOTE"},"geometry":{"type":"MultiPolygon","coordinates":[[[[-79.720469,-6.206867],[-79.722214,-6.2067],[-79.722275,-6.207349],[-79.722365,-6.208189],[-79.722392,-6.208493],[-79.72144,-6.208598],[-79.721348,-6.208598],[-79.721185,-6.208402],[-79.72113,-6.208253],[-79.721022,-6.208111],[-79.720811,-6.208016],[-79.720784,-6.207617],[-79.720522,-6.207634],[-79.720494,-6.207178],[-79.720469,-6.206867]]],[[[-79.720379,-6.206894],[-79.720445,-6.207625],[-79.720237,-6.207657],[-79.720078,-6.207659],[-79.719901,-6.207637],[-79.719847,-6.207438],[-79.719926,-6.207384],[-79.72009,-6.207238],[-79.720058,-6.206896],[-79.720379,-6.206894]]]]}},{"type":"Feature","properties":{"LOTE":"M06T04-23","CAMPO":"MOTUPE","FUNDO":"FRANCO II","MODULO":"M06","ACTIVO":true,"PIEZAS":1,"TIPO":"LOTE"},"geometry":{"type":"Polygon","coordinates":[[[-79.724177,-6.208381],[-79.724239,-6.208961],[-79.724366,-6.210188],[-79.722564,-6.210347],[-79.722386,-6.210024],[-79.722173,-6.20962],[-79.722095,-6.209404],[-79.721925,-6.208992],[-79.721728,-6.208816],[-79.721534,-6.208669],[-79.721538,-6.208616],[-79.722413,-6.208539],[-79.72285,-6.208508],[-79.723527,-6.208415],[-79.724177,-6.208381]]]}},{"type":"Feature","properties":{"LOTE":"M06T05-24","CAMPO":"MOTUPE","FUNDO":"FRANCO II","MODULO":"M06","ACTIVO":true,"PIEZAS":1,"TIPO":"LOTE"},"geometry":{"type":"Polygon","coordinates":[[[-79.72798,-6.209851],[-79.727986,-6.209983],[-79.727951,-6.210182],[-79.72791,-6.210362],[-79.727845,-6.210551],[-79.727807,-6.21069],[-79.727744,-6.210829],[-79.727709,-6.211009],[-79.727597,-6.211239],[-79.727558,-6.211346],[-79.727511,-6.211425],[-79.72746,-6.211564],[-79.72732,-6.211652],[-79.726406,-6.211709],[-79.726314,-6.210829],[-79.726234,-6.210032],[-79.72706,-6.209966],[-79.72798,-6.209851]]]}},{"type":"Feature","properties":{"LOTE":"M06T05-25","CAMPO":"MOTUPE","FUNDO":"FRANCO II","MODULO":"M06","ACTIVO":true,"PIEZAS":1,"TIPO":"LOTE"},"geometry":{"type":"Polygon","coordinates":[[[-79.726187,-6.210038],[-79.72626,-6.210643],[-79.726378,-6.211723],[-79.724635,-6.211915],[-79.724546,-6.211013],[-79.724457,-6.210215],[-79.726187,-6.210038]]]}},{"type":"Feature","properties":{"LOTE":"M06T05-26","CAMPO":"MOTUPE","FUNDO":"FRANCO II","MODULO":"M06","ACTIVO":true,"PIEZAS":1,"TIPO":"LOTE"},"geometry":{"type":"Polygon","coordinates":[[[-79.724347,-6.210218],[-79.724408,-6.210335],[-79.724408,-6.210587],[-79.724536,-6.211749],[-79.724549,-6.211922],[-79.724143,-6.211957],[-79.723426,-6.211418],[-79.723388,-6.211166],[-79.723318,-6.211011],[-79.723229,-6.210733],[-79.723153,-6.210636],[-79.722829,-6.210653],[-79.7228,-6.210366],[-79.724347,-6.210218]]]}},{"type":"Feature","properties":{"LOTE":"M06T05-27","CAMPO":"MOTUPE","FUNDO":"FRANCO II","MODULO":"M06","ACTIVO":true,"PIEZAS":2,"TIPO":"LOTE"},"geometry":{"type":"MultiPolygon","coordinates":[[[[-79.72455,-6.211956],[-79.724571,-6.212263],[-79.724288,-6.212063],[-79.724285,-6.211971],[-79.72455,-6.211956]]],[[[-79.727345,-6.21168],[-79.727307,-6.211885],[-79.727247,-6.212025],[-79.727194,-6.212128],[-79.727087,-6.212412],[-79.726993,-6.212695],[-79.726918,-6.213035],[-79.726809,-6.213476],[-79.726755,-6.213476],[-79.726602,-6.213513],[-79.725727,-6.213591],[-79.72562,-6.213305],[-79.725491,-6.213121],[-79.725234,-6.212846],[-79.725001,-6.212625],[-79.724681,-6.212378],[-79.724638,-6.211945],[-79.725303,-6.211876],[-79.726391,-6.211755],[-79.727345,-6.21168]]]]}},{"type":"Feature","properties":{"LOTE":"M06T05-28","CAMPO":"MOTUPE","FUNDO":"FRANCO II","MODULO":"M06","ACTIVO":true,"PIEZAS":1,"TIPO":"LOTE"},"geometry":{"type":"Polygon","coordinates":[[[-79.726787,-6.213536],[-79.726589,-6.214428],[-79.726328,-6.215351],[-79.725721,-6.215379],[-79.725622,-6.215222],[-79.725478,-6.215166],[-79.7254,-6.214415],[-79.72558,-6.214398],[-79.725693,-6.21431],[-79.725796,-6.214],[-79.725769,-6.213621],[-79.726787,-6.213536]]]}},{"type":"Feature","properties":{"LOTE":"M06T05-29","CAMPO":"MOTUPE","FUNDO":"FRANCO II","MODULO":"M06","ACTIVO":true,"PIEZAS":1,"TIPO":"LOTE"},"geometry":{"type":"Polygon","coordinates":[[[-79.726247,-6.215381],[-79.726287,-6.215632],[-79.726491,-6.215685],[-79.726751,-6.215724],[-79.727145,-6.215815],[-79.727185,-6.216272],[-79.727131,-6.21634],[-79.727163,-6.216642],[-79.727113,-6.216823],[-79.726995,-6.216911],[-79.726845,-6.21695],[-79.726781,-6.216918],[-79.726685,-6.216815],[-79.726485,-6.216595],[-79.726278,-6.216355],[-79.72606,-6.216069],[-79.725873,-6.215762],[-79.725768,-6.215455],[-79.726247,-6.215381]]]}},{"type":"Feature","properties":{"LOTE":"M03T01-01","CAMPO":"MOTUPE","FUNDO":"MERCEDES","MODULO":"M03","ACTIVO":true,"PIEZAS":1,"TIPO":"LOTE"},"geometry":{"type":"Polygon","coordinates":[[[-79.70344,-6.182583],[-79.703771,-6.181885],[-79.704057,-6.181076],[-79.704213,-6.180691],[-79.704601,-6.180795],[-79.705001,-6.182183],[-79.70342,-6.182642],[-79.70344,-6.182583]]]}},{"type":"Feature","properties":{"LOTE":"M03T01-02","CAMPO":"MOTUPE","FUNDO":"MERCEDES","MODULO":"M03","ACTIVO":true,"PIEZAS":1,"TIPO":"LOTE"},"geometry":{"type":"Polygon","coordinates":[[[-79.705934,-6.180835],[-79.706225,-6.181819],[-79.705083,-6.182146],[-79.704712,-6.180818],[-79.705104,-6.180885],[-79.705555,-6.180885],[-79.705934,-6.180835]]]}},{"type":"Feature","properties":{"LOTE":"M03T01-03","CAMPO":"MOTUPE","FUNDO":"MERCEDES","MODULO":"M03","ACTIVO":true,"PIEZAS":1,"TIPO":"LOTE"},"geometry":{"type":"Polygon","coordinates":[[[-79.705987,-6.180831],[-79.707461,-6.180642],[-79.707495,-6.181451],[-79.70626,-6.181782],[-79.705987,-6.180831]]]}},{"type":"Feature","properties":{"LOTE":"M03T01-04","CAMPO":"MOTUPE","FUNDO":"MERCEDES","MODULO":"M03","ACTIVO":true,"PIEZAS":1,"TIPO":"LOTE"},"geometry":{"type":"Polygon","coordinates":[[[-79.707498,-6.181498],[-79.707538,-6.181719],[-79.707555,-6.182275],[-79.707646,-6.183006],[-79.706728,-6.183301],[-79.706289,-6.181839],[-79.707498,-6.181498]]]}},{"type":"Feature","properties":{"LOTE":"M03T01-05","CAMPO":"MOTUPE","FUNDO":"MERCEDES","MODULO":"M03","ACTIVO":true,"PIEZAS":1,"TIPO":"LOTE"},"geometry":{"type":"Polygon","coordinates":[[[-79.706236,-6.181858],[-79.706677,-6.183331],[-79.70632,-6.183463],[-79.706085,-6.183576],[-79.705819,-6.183704],[-79.705561,-6.183802],[-79.705117,-6.182182],[-79.706236,-6.181858]]]}},{"type":"Feature","properties":{"LOTE":"M03T01-06","CAMPO":"MOTUPE","FUNDO":"MERCEDES","MODULO":"M03","ACTIVO":true,"PIEZAS":1,"TIPO":"LOTE"},"geometry":{"type":"Polygon","coordinates":[[[-79.705002,-6.182229],[-79.705494,-6.183831],[-79.705322,-6.183913],[-79.704919,-6.183965],[-79.70435,-6.183984],[-79.703934,-6.182533],[-79.705002,-6.182229]]]}},{"type":"Feature","properties":{"LOTE":"M03T01-07","CAMPO":"MOTUPE","FUNDO":"MERCEDES","MODULO":"M03","ACTIVO":true,"PIEZAS":1,"TIPO":"LOTE"},"geometry":{"type":"Polygon","coordinates":[[[-79.703901,-6.182544],[-79.704321,-6.183977],[-79.703938,-6.183993],[-79.703376,-6.184059],[-79.702885,-6.18415],[-79.702826,-6.184109],[-79.702922,-6.183795],[-79.703068,-6.18332],[-79.703189,-6.183006],[-79.703428,-6.182679],[-79.703901,-6.182544]]]}},{"type":"Feature","properties":{"LOTE":"M03T01-08","CAMPO":"MOTUPE","FUNDO":"MERCEDES","MODULO":"M03","ACTIVO":true,"PIEZAS":1,"TIPO":"LOTE"},"geometry":{"type":"Polygon","coordinates":[[[-79.709781,-6.184795],[-79.709731,-6.184799],[-79.709562,-6.184191],[-79.709385,-6.184144],[-79.709178,-6.184212],[-79.709039,-6.184245],[-79.709237,-6.184929],[-79.708988,-6.185034],[-79.709094,-6.185554],[-79.708756,-6.185671],[-79.708575,-6.185034],[-79.708634,-6.184841],[-79.708229,-6.183541],[-79.708157,-6.183549],[-79.708022,-6.183079],[-79.709233,-6.18292],[-79.709486,-6.183826],[-79.709781,-6.184795]]]}},{"type":"Feature","properties":{"LOTE":"M03T02-09","CAMPO":"MOTUPE","FUNDO":"NARCISO","MODULO":"M03","ACTIVO":true,"PIEZAS":1,"TIPO":"LOTE"},"geometry":{"type":"Polygon","coordinates":[[[-79.709838,-6.184923],[-79.71027,-6.186426],[-79.708896,-6.186632],[-79.708787,-6.186281],[-79.708842,-6.186267],[-79.708733,-6.185869],[-79.708795,-6.185743],[-79.709329,-6.185555],[-79.709517,-6.185599],[-79.70965,-6.185643],[-79.70975,-6.185637],[-79.709762,-6.185544],[-79.709594,-6.184999],[-79.709838,-6.184923]]]}},{"type":"Feature","properties":{"LOTE":"M03T02-10","CAMPO":"MOTUPE","FUNDO":"NARCISO","MODULO":"M03","ACTIVO":true,"PIEZAS":1,"TIPO":"LOTE"},"geometry":{"type":"Polygon","coordinates":[[[-79.709911,-6.184797],[-79.709314,-6.182929],[-79.709767,-6.182886],[-79.70985,-6.18307],[-79.710027,-6.183027],[-79.709992,-6.182921],[-79.710118,-6.18287],[-79.710244,-6.182698],[-79.710801,-6.184573],[-79.709911,-6.184797]]]}},{"type":"Feature","properties":{"LOTE":"M03T02-11","CAMPO":"MOTUPE","FUNDO":"NARCISO","MODULO":"M03","ACTIVO":true,"PIEZAS":1,"TIPO":"LOTE"},"geometry":{"type":"Polygon","coordinates":[[[-79.710837,-6.184562],[-79.710266,-6.182686],[-79.710785,-6.182704],[-79.711016,-6.182724],[-79.7111,-6.182874],[-79.711314,-6.182958],[-79.711724,-6.184296],[-79.710837,-6.184562]]]}},{"type":"Feature","properties":{"LOTE":"M03T02-12","CAMPO":"MOTUPE","FUNDO":"NARCISO","MODULO":"M03","ACTIVO":true,"PIEZAS":1,"TIPO":"LOTE"},"geometry":{"type":"Polygon","coordinates":[[[-79.711762,-6.184278],[-79.711363,-6.182983],[-79.711594,-6.183104],[-79.712009,-6.1832],[-79.712459,-6.183295],[-79.712688,-6.184008],[-79.711762,-6.184278]]]}},{"type":"Feature","properties":{"LOTE":"M03T02-13","CAMPO":"MOTUPE","FUNDO":"NARCISO","MODULO":"M03","ACTIVO":true,"PIEZAS":1,"TIPO":"LOTE"},"geometry":{"type":"Polygon","coordinates":[[[-79.710807,-6.184637],[-79.711234,-6.186026],[-79.711077,-6.186006],[-79.71096,-6.186054],[-79.710936,-6.186319],[-79.710387,-6.186415],[-79.709927,-6.184906],[-79.710807,-6.184637]]]}},{"type":"Feature","properties":{"LOTE":"M03T02-14","CAMPO":"MOTUPE","FUNDO":"NARCISO","MODULO":"M03","ACTIVO":true,"PIEZAS":1,"TIPO":"LOTE"},"geometry":{"type":"Polygon","coordinates":[[[-79.711767,-6.18434],[-79.712252,-6.185976],[-79.711275,-6.186024],[-79.710855,-6.184611],[-79.711767,-6.18434]]]}},{"type":"Feature","properties":{"LOTE":"M03T02-15","CAMPO":"MOTUPE","FUNDO":"NARCISO","MODULO":"M03","ACTIVO":true,"PIEZAS":1,"TIPO":"LOTE"},"geometry":{"type":"Polygon","coordinates":[[[-79.712703,-6.184066],[-79.712752,-6.184236],[-79.712396,-6.18434],[-79.712869,-6.185954],[-79.712461,-6.186058],[-79.712372,-6.186002],[-79.712287,-6.185962],[-79.711816,-6.184318],[-79.712703,-6.184066]]]}},{"type":"Feature","properties":{"LOTE":"M03T02-16","CAMPO":"MOTUPE","FUNDO":"NARCISO","MODULO":"M03","ACTIVO":true,"PIEZAS":1,"TIPO":"LOTE"},"geometry":{"type":"Polygon","coordinates":[[[-79.713915,-6.187703],[-79.712784,-6.188045],[-79.712639,-6.18763],[-79.712691,-6.187575],[-79.712503,-6.186898],[-79.712532,-6.186847],[-79.712425,-6.186453],[-79.712473,-6.186372],[-79.712408,-6.18613],[-79.712888,-6.185997],[-79.713195,-6.186998],[-79.713721,-6.18702],[-79.713915,-6.187703]]]}},{"type":"Feature","properties":{"LOTE":"M03T02-17","CAMPO":"MOTUPE","FUNDO":"NARCISO","MODULO":"M03","ACTIVO":true,"PIEZAS":1,"TIPO":"LOTE"},"geometry":{"type":"Polygon","coordinates":[[[-79.714005,-6.187674],[-79.713822,-6.187016],[-79.716135,-6.18705],[-79.714005,-6.187674]]]}},{"type":"Feature","properties":{"LOTE":"M03T03-18","CAMPO":"MOTUPE","FUNDO":"CUADRADO","MODULO":"M03","ACTIVO":true,"PIEZAS":1,"TIPO":"LOTE"},"geometry":{"type":"Polygon","coordinates":[[[-79.71283,-6.18808],[-79.713925,-6.187765],[-79.71445,-6.189569],[-79.713344,-6.189886],[-79.71283,-6.18808]]]}},{"type":"Feature","properties":{"LOTE":"M03T03-19","CAMPO":"MOTUPE","FUNDO":"CUADRADO","MODULO":"M03","ACTIVO":true,"PIEZAS":1,"TIPO":"LOTE"},"geometry":{"type":"Polygon","coordinates":[[[-79.712794,-6.1881],[-79.713309,-6.189909],[-79.712309,-6.190165],[-79.71209,-6.18954],[-79.712143,-6.189462],[-79.712082,-6.18921],[-79.711946,-6.189054],[-79.711704,-6.188996],[-79.711564,-6.188884],[-79.711555,-6.188753],[-79.712629,-6.18858],[-79.712843,-6.188506],[-79.712738,-6.188094],[-79.712794,-6.1881]]]}},{"type":"Feature","properties":{"LOTE":"M03T03-20","CAMPO":"MOTUPE","FUNDO":"CUADRADO","MODULO":"M03","ACTIVO":true,"PIEZAS":1,"TIPO":"LOTE"},"geometry":{"type":"Polygon","coordinates":[[[-79.714025,-6.187721],[-79.714918,-6.187466],[-79.715461,-6.189269],[-79.714567,-6.189541],[-79.714025,-6.187721]]]}},{"type":"Feature","properties":{"LOTE":"M03T03-21","CAMPO":"MOTUPE","FUNDO":"CUADRADO","MODULO":"M03","ACTIVO":true,"PIEZAS":1,"TIPO":"LOTE"},"geometry":{"type":"Polygon","coordinates":[[[-79.714964,-6.187465],[-79.715836,-6.187187],[-79.716371,-6.189002],[-79.715494,-6.189252],[-79.714964,-6.187465]]]}},{"type":"Feature","properties":{"LOTE":"M03T03-22","CAMPO":"MOTUPE","FUNDO":"CUADRADO","MODULO":"M03","ACTIVO":true,"PIEZAS":1,"TIPO":"LOTE"},"geometry":{"type":"Polygon","coordinates":[[[-79.715884,-6.187179],[-79.716382,-6.187035],[-79.716545,-6.187197],[-79.71668,-6.187432],[-79.716858,-6.187728],[-79.716972,-6.187961],[-79.717082,-6.188184],[-79.717233,-6.188379],[-79.717371,-6.188718],[-79.716421,-6.188973],[-79.715884,-6.187179]]]}},{"type":"Feature","properties":{"LOTE":"M03T03-23","CAMPO":"MOTUPE","FUNDO":"CUADRADO","MODULO":"M03","ACTIVO":true,"PIEZAS":1,"TIPO":"LOTE"},"geometry":{"type":"Polygon","coordinates":[[[-79.717367,-6.188758],[-79.717531,-6.189316],[-79.717504,-6.189442],[-79.717729,-6.190232],[-79.717702,-6.190279],[-79.716698,-6.18999],[-79.716418,-6.189023],[-79.717367,-6.188758]]]}},{"type":"Feature","properties":{"LOTE":"M03T03-24","CAMPO":"MOTUPE","FUNDO":"CUADRADO","MODULO":"M03","ACTIVO":true,"PIEZAS":1,"TIPO":"LOTE"},"geometry":{"type":"Polygon","coordinates":[[[-79.716381,-6.189038],[-79.716658,-6.189981],[-79.716009,-6.189838],[-79.715955,-6.18994],[-79.716074,-6.190412],[-79.71613,-6.190836],[-79.716093,-6.190966],[-79.716004,-6.190991],[-79.715499,-6.189296],[-79.716381,-6.189038]]]}},{"type":"Feature","properties":{"LOTE":"M03T03-25","CAMPO":"MOTUPE","FUNDO":"CUADRADO","MODULO":"M03","ACTIVO":true,"PIEZAS":1,"TIPO":"LOTE"},"geometry":{"type":"Polygon","coordinates":[[[-79.715465,-6.189309],[-79.715954,-6.190995],[-79.715032,-6.191086],[-79.714587,-6.189572],[-79.715465,-6.189309]]]}},{"type":"Feature","properties":{"LOTE":"M03T03-26","CAMPO":"MOTUPE","FUNDO":"CUADRADO","MODULO":"M03","ACTIVO":true,"PIEZAS":1,"TIPO":"LOTE"},"geometry":{"type":"Polygon","coordinates":[[[-79.714839,-6.190789],[-79.714561,-6.190763],[-79.714329,-6.19069],[-79.714151,-6.190627],[-79.71351,-6.190538],[-79.712863,-6.190481],[-79.712201,-6.190423],[-79.71218,-6.190256],[-79.714498,-6.189598],[-79.714839,-6.190789]]]}},{"type":"Feature","properties":{"LOTE":"M03T04-27","CAMPO":"MOTUPE","FUNDO":"PALACIOS","MODULO":"M03","ACTIVO":true,"PIEZAS":1,"TIPO":"LOTE"},"geometry":{"type":"Polygon","coordinates":[[[-79.715988,-6.163568],[-79.71442,-6.164062],[-79.714105,-6.163011],[-79.714326,-6.163001],[-79.714718,-6.163039],[-79.715138,-6.163046],[-79.715484,-6.163018],[-79.715764,-6.162983],[-79.715988,-6.163568]]]}},{"type":"Feature","properties":{"LOTE":"M03T04-28","CAMPO":"MOTUPE","FUNDO":"PALACIOS","MODULO":"M03","ACTIVO":true,"PIEZAS":1,"TIPO":"LOTE"},"geometry":{"type":"Polygon","coordinates":[[[-79.714447,-6.164098],[-79.715986,-6.163615],[-79.716157,-6.163885],[-79.716297,-6.164056],[-79.716433,-6.164423],[-79.716561,-6.16489],[-79.716565,-6.165528],[-79.714983,-6.16598],[-79.714742,-6.165118],[-79.714447,-6.164098]]]}},{"type":"Feature","properties":{"LOTE":"M03T05-29","CAMPO":"MOTUPE","FUNDO":"PALACIOS","MODULO":"M03","ACTIVO":true,"PIEZAS":1,"TIPO":"LOTE"},"geometry":{"type":"Polygon","coordinates":[[[-79.715009,-6.166007],[-79.716588,-6.165555],[-79.716483,-6.167758],[-79.715394,-6.167425],[-79.715009,-6.166007]]]}},{"type":"Feature","properties":{"LOTE":"M03T05-30","CAMPO":"MOTUPE","FUNDO":"PALACIOS","MODULO":"M03","ACTIVO":true,"PIEZAS":1,"TIPO":"LOTE"},"geometry":{"type":"Polygon","coordinates":[[[-79.71529,-6.167355],[-79.71427,-6.167062],[-79.714206,-6.166999],[-79.71406,-6.166993],[-79.713326,-6.166739],[-79.713151,-6.166575],[-79.71491,-6.166051],[-79.71529,-6.167355]]]}},{"type":"Feature","properties":{"LOTE":"M03T05-31","CAMPO":"MOTUPE","FUNDO":"PALACIOS","MODULO":"M03","ACTIVO":true,"PIEZAS":1,"TIPO":"LOTE"},"geometry":{"type":"Polygon","coordinates":[[[-79.714323,-6.164111],[-79.71491,-6.16601],[-79.713201,-6.16651],[-79.713121,-6.166479],[-79.713081,-6.166361],[-79.713164,-6.165933],[-79.713193,-6.165329],[-79.713132,-6.16447],[-79.714323,-6.164111]]]}},{"type":"Feature","properties":{"LOTE":"M03T04-32","CAMPO":"MOTUPE","FUNDO":"PALACIOS","MODULO":"M03","ACTIVO":true,"PIEZAS":1,"TIPO":"LOTE"},"geometry":{"type":"Polygon","coordinates":[[[-79.714332,-6.164067],[-79.713165,-6.16442],[-79.71313,-6.164253],[-79.71314,-6.163513],[-79.713138,-6.163373],[-79.713126,-6.163294],[-79.712973,-6.16328],[-79.712895,-6.163022],[-79.713084,-6.162968],[-79.71323,-6.162453],[-79.713244,-6.162403],[-79.713558,-6.162242],[-79.713796,-6.162254],[-79.71388,-6.162556],[-79.713848,-6.162905],[-79.713892,-6.163022],[-79.714027,-6.163025],[-79.714332,-6.164067]]]}},{"type":"Feature","properties":{"LOTE":"M03T07-33","CAMPO":"MOTUPE","FUNDO":"RIVERA","MODULO":"M03","ACTIVO":true,"PIEZAS":2,"TIPO":"LOTE"},"geometry":{"type":"MultiPolygon","coordinates":[[[[-79.708,-6.183935],[-79.708208,-6.184593],[-79.7076,-6.18478],[-79.706985,-6.184975],[-79.706285,-6.185166],[-79.706085,-6.184486],[-79.706301,-6.184421],[-79.706866,-6.184256],[-79.708,-6.183935]]],[[[-79.70607,-6.184447],[-79.705882,-6.183905],[-79.706208,-6.18374],[-79.706597,-6.183587],[-79.707031,-6.183465],[-79.707593,-6.183274],[-79.707835,-6.183205],[-79.70792,-6.183431],[-79.707604,-6.183534],[-79.707654,-6.183706],[-79.707935,-6.183649],[-79.708016,-6.183886],[-79.70607,-6.184447]]]]}},{"type":"Feature","properties":{"LOTE":"M03T07-34","CAMPO":"MOTUPE","FUNDO":"RIVERA","MODULO":"M03","ACTIVO":true,"PIEZAS":1,"TIPO":"LOTE"},"geometry":{"type":"Polygon","coordinates":[[[-79.70615,-6.185202],[-79.705673,-6.185382],[-79.705206,-6.185465],[-79.705043,-6.184942],[-79.70506,-6.184553],[-79.705119,-6.184274],[-79.70522,-6.184098],[-79.705462,-6.184033],[-79.70577,-6.18393],[-79.70615,-6.185202]]]}},{"type":"Feature","properties":{"LOTE":"M03T07-35","CAMPO":"MOTUPE","FUNDO":"RIVERA","MODULO":"M03","ACTIVO":true,"PIEZAS":2,"TIPO":"LOTE"},"geometry":{"type":"MultiPolygon","coordinates":[[[[-79.704304,-6.185022],[-79.704458,-6.185564],[-79.704124,-6.185595],[-79.703966,-6.185652],[-79.703685,-6.185717],[-79.703339,-6.18574],[-79.703228,-6.185327],[-79.704304,-6.185022]]],[[[-79.703154,-6.185307],[-79.702925,-6.185007],[-79.702853,-6.184782],[-79.702793,-6.184434],[-79.702847,-6.184308],[-79.70315,-6.184257],[-79.703415,-6.184181],[-79.703649,-6.184147],[-79.703748,-6.18413],[-79.703837,-6.184397],[-79.703995,-6.184563],[-79.704149,-6.184665],[-79.704286,-6.184792],[-79.704358,-6.184898],[-79.704346,-6.184983],[-79.704276,-6.184999],[-79.703154,-6.185307]]]]}},{"type":"Feature","properties":{"LOTE":"M04T01-01","CAMPO":"MOTUPE","FUNDO":"CHOC CHOC","MODULO":"M04","ACTIVO":true,"PIEZAS":1,"TIPO":"LOTE"},"geometry":{"type":"Polygon","coordinates":[[[-79.713699,-6.195032],[-79.714611,-6.195021],[-79.714637,-6.195083],[-79.714648,-6.196047],[-79.71467,-6.197162],[-79.714196,-6.197183],[-79.713728,-6.197192],[-79.713699,-6.195032]]]}},{"type":"Feature","properties":{"LOTE":"M04T01-02","CAMPO":"MOTUPE","FUNDO":"CHOC CHOC","MODULO":"M04","ACTIVO":true,"PIEZAS":1,"TIPO":"LOTE"},"geometry":{"type":"Polygon","coordinates":[[[-79.712742,-6.195043],[-79.713651,-6.195027],[-79.713673,-6.195507],[-79.713681,-6.195969],[-79.713693,-6.196326],[-79.713702,-6.196779],[-79.713705,-6.197191],[-79.712796,-6.197208],[-79.712742,-6.195043]]]}},{"type":"Feature","properties":{"LOTE":"M04T01-03","CAMPO":"MOTUPE","FUNDO":"CHOC CHOC","MODULO":"M04","ACTIVO":true,"PIEZAS":1,"TIPO":"LOTE"},"geometry":{"type":"Polygon","coordinates":[[[-79.7118,-6.195067],[-79.712707,-6.195036],[-79.712736,-6.195934],[-79.712759,-6.196749],[-79.712767,-6.19722],[-79.711964,-6.197236],[-79.71181,-6.197017],[-79.7118,-6.195067]]]}},{"type":"Feature","properties":{"LOTE":"M04T01-04","CAMPO":"MOTUPE","FUNDO":"CHOC CHOC","MODULO":"M04","ACTIVO":true,"PIEZAS":1,"TIPO":"LOTE"},"geometry":{"type":"Polygon","coordinates":[[[-79.713745,-6.197353],[-79.714293,-6.197338],[-79.714318,-6.19817],[-79.714385,-6.198169],[-79.714401,-6.19927],[-79.713791,-6.199294],[-79.713745,-6.197353]]]}},{"type":"Feature","properties":{"LOTE":"M04T01-05","CAMPO":"MOTUPE","FUNDO":"CHOC CHOC","MODULO":"M04","ACTIVO":true,"PIEZAS":1,"TIPO":"LOTE"},"geometry":{"type":"Polygon","coordinates":[[[-79.712794,-6.19738],[-79.713708,-6.197363],[-79.71372,-6.197893],[-79.713741,-6.198445],[-79.713756,-6.199297],[-79.712841,-6.199306],[-79.712794,-6.19738]]]}},{"type":"Feature","properties":{"LOTE":"M04T01-06","CAMPO":"MOTUPE","FUNDO":"CHOC CHOC","MODULO":"M04","ACTIVO":true,"PIEZAS":1,"TIPO":"LOTE"},"geometry":{"type":"Polygon","coordinates":[[[-79.711923,-6.19741],[-79.712755,-6.197372],[-79.712786,-6.19811],[-79.712795,-6.198803],[-79.712809,-6.199317],[-79.712012,-6.199331],[-79.711958,-6.199153],[-79.711923,-6.19741]]]}},{"type":"Feature","properties":{"LOTE":"M04T01-07","CAMPO":"MOTUPE","FUNDO":"CHOC CHOC","MODULO":"M04","ACTIVO":true,"PIEZAS":1,"TIPO":"LOTE"},"geometry":{"type":"Polygon","coordinates":[[[-79.712025,-6.199387],[-79.714417,-6.199315],[-79.714422,-6.199736],[-79.712079,-6.200008],[-79.71202,-6.199954],[-79.712025,-6.199387]]]}},{"type":"Feature","properties":{"LOTE":"M04T01-08","CAMPO":"MOTUPE","FUNDO":"CHOC CHOC","MODULO":"M04","ACTIVO":true,"PIEZAS":1,"TIPO":"LOTE"},"geometry":{"type":"Polygon","coordinates":[[[-79.711883,-6.200019],[-79.711576,-6.200048],[-79.711516,-6.200088],[-79.710611,-6.200121],[-79.710618,-6.200194],[-79.710152,-6.20021],[-79.710032,-6.199632],[-79.710415,-6.199612],[-79.710425,-6.199552],[-79.711017,-6.199519],[-79.711044,-6.19946],[-79.711872,-6.199453],[-79.711883,-6.200019]]]}},{"type":"Feature","properties":{"LOTE":"M04T01-09","CAMPO":"MOTUPE","FUNDO":"CHOC CHOC","MODULO":"M04","ACTIVO":true,"PIEZAS":1,"TIPO":"LOTE"},"geometry":{"type":"Polygon","coordinates":[[[-79.710079,-6.200201],[-79.709953,-6.200217],[-79.709926,-6.20027],[-79.709603,-6.200283],[-79.709447,-6.19982],[-79.709457,-6.199764],[-79.70951,-6.199711],[-79.709603,-6.199681],[-79.709773,-6.199635],[-79.709956,-6.199622],[-79.710079,-6.200201]]]}},{"type":"Feature","properties":{"LOTE":"M04T01-10","CAMPO":"MOTUPE","FUNDO":"CHOC CHOC","MODULO":"M04","ACTIVO":true,"PIEZAS":1,"TIPO":"LOTE"},"geometry":{"type":"Polygon","coordinates":[[[-79.71488,-6.19661],[-79.715014,-6.196688],[-79.715249,-6.196748],[-79.715581,-6.196716],[-79.715752,-6.196569],[-79.715849,-6.196574],[-79.716121,-6.196964],[-79.716167,-6.197115],[-79.716121,-6.19717],[-79.71482,-6.197202],[-79.714815,-6.196826],[-79.71488,-6.19661]]]}},{"type":"Feature","properties":{"LOTE":"M04T02-11","CAMPO":"MOTUPE","FUNDO":"CHOC CHOC","MODULO":"M04","ACTIVO":true,"PIEZAS":1,"TIPO":"LOTE"},"geometry":{"type":"Polygon","coordinates":[[[-79.714441,-6.197312],[-79.714819,-6.197317],[-79.714822,-6.197231],[-79.715174,-6.197228],[-79.715199,-6.197904],[-79.715211,-6.19875],[-79.715231,-6.199253],[-79.714537,-6.199278],[-79.714529,-6.198552],[-79.714473,-6.198533],[-79.714443,-6.197761],[-79.714441,-6.197312]]]}},{"type":"Feature","properties":{"LOTE":"M04T02-12","CAMPO":"MOTUPE","FUNDO":"CHOC CHOC","MODULO":"M04","ACTIVO":true,"PIEZAS":1,"TIPO":"LOTE"},"geometry":{"type":"Polygon","coordinates":[[[-79.715206,-6.197237],[-79.716056,-6.197212],[-79.716074,-6.197805],[-79.716091,-6.198628],[-79.716091,-6.199218],[-79.715256,-6.199246],[-79.715235,-6.197988],[-79.715206,-6.197237]]]}},{"type":"Feature","properties":{"LOTE":"M04T02-13","CAMPO":"MOTUPE","FUNDO":"CHOC CHOC","MODULO":"M04","ACTIVO":true,"PIEZAS":1,"TIPO":"LOTE"},"geometry":{"type":"Polygon","coordinates":[[[-79.716088,-6.19721],[-79.716246,-6.197215],[-79.716339,-6.197341],[-79.716444,-6.197521],[-79.716496,-6.197728],[-79.716568,-6.197918],[-79.716643,-6.198157],[-79.71672,-6.198439],[-79.71677,-6.198713],[-79.716845,-6.198982],[-79.716913,-6.199136],[-79.716907,-6.199223],[-79.716118,-6.199229],[-79.716108,-6.198028],[-79.716101,-6.197535],[-79.716088,-6.19721]]]}},{"type":"Feature","properties":{"LOTE":"M04T02-14","CAMPO":"MOTUPE","FUNDO":"CHOC CHOC","MODULO":"M04","ACTIVO":true,"PIEZAS":1,"TIPO":"LOTE"},"geometry":{"type":"Polygon","coordinates":[[[-79.717214,-6.200188],[-79.71648,-6.200195],[-79.716434,-6.200052],[-79.716381,-6.199988],[-79.715889,-6.200015],[-79.715867,-6.20021],[-79.714572,-6.200241],[-79.714538,-6.199311],[-79.716113,-6.199262],[-79.716919,-6.199254],[-79.716972,-6.199435],[-79.717055,-6.199631],[-79.717127,-6.199811],[-79.717199,-6.200007],[-79.717214,-6.200188]]]}},{"type":"Feature","properties":{"LOTE":"M04T02-15","CAMPO":"MOTUPE","FUNDO":"CHOC CHOC","MODULO":"M04","ACTIVO":true,"PIEZAS":1,"TIPO":"LOTE"},"geometry":{"type":"Polygon","coordinates":[[[-79.71442,-6.201817],[-79.714488,-6.201792],[-79.714479,-6.20094],[-79.714523,-6.200872],[-79.714502,-6.200299],[-79.71526,-6.200277],[-79.715263,-6.201318],[-79.715289,-6.202094],[-79.715034,-6.202156],[-79.714829,-6.20219],[-79.714565,-6.202212],[-79.714413,-6.202181],[-79.71442,-6.201817]]]}},{"type":"Feature","properties":{"LOTE":"M04T02-16","CAMPO":"MOTUPE","FUNDO":"CHOC CHOC","MODULO":"M04","ACTIVO":true,"PIEZAS":1,"TIPO":"LOTE"},"geometry":{"type":"Polygon","coordinates":[[[-79.71529,-6.200281],[-79.716126,-6.200253],[-79.716147,-6.200862],[-79.716159,-6.201412],[-79.716172,-6.201969],[-79.715963,-6.201959],[-79.71589,-6.201984],[-79.715822,-6.201991],[-79.715772,-6.201979],[-79.715689,-6.202001],[-79.715636,-6.201974],[-79.715558,-6.202011],[-79.715434,-6.202054],[-79.715311,-6.202091],[-79.715294,-6.200979],[-79.71529,-6.200281]]]}},{"type":"Feature","properties":{"LOTE":"M04T02-17","CAMPO":"MOTUPE","FUNDO":"CHOC CHOC","MODULO":"M04","ACTIVO":true,"PIEZAS":1,"TIPO":"LOTE"},"geometry":{"type":"Polygon","coordinates":[[[-79.716152,-6.200255],[-79.717263,-6.200254],[-79.717275,-6.200654],[-79.71733,-6.20066],[-79.7174,-6.200885],[-79.717482,-6.201035],[-79.717495,-6.201441],[-79.717551,-6.201455],[-79.717554,-6.201586],[-79.717453,-6.201634],[-79.717392,-6.201703],[-79.717269,-6.201748],[-79.717123,-6.201762],[-79.717,-6.201778],[-79.716894,-6.201823],[-79.716718,-6.201867],[-79.716536,-6.201912],[-79.716346,-6.201948],[-79.71622,-6.201973],[-79.716192,-6.201942],[-79.716167,-6.200777],[-79.716152,-6.200255]]]}},{"type":"Feature","properties":{"LOTE":"M04T02-18","CAMPO":"MOTUPE","FUNDO":"CHOC CHOC","MODULO":"M04","ACTIVO":true,"PIEZAS":1,"TIPO":"LOTE"},"geometry":{"type":"Polygon","coordinates":[[[-79.718029,-6.203288],[-79.718046,-6.203593],[-79.716037,-6.203645],[-79.716024,-6.203305],[-79.716076,-6.203258],[-79.716084,-6.202541],[-79.716136,-6.202291],[-79.716197,-6.202437],[-79.716266,-6.202596],[-79.716374,-6.202678],[-79.71643,-6.202798],[-79.716491,-6.202876],[-79.716564,-6.202953],[-79.71662,-6.203065],[-79.716776,-6.203194],[-79.71723,-6.203301],[-79.717593,-6.203292],[-79.717791,-6.203237],[-79.718029,-6.203288]]]}},{"type":"Feature","properties":{"LOTE":"M04T02-19","CAMPO":"MOTUPE","FUNDO":"CHOC CHOC","MODULO":"M04","ACTIVO":true,"PIEZAS":1,"TIPO":"LOTE"},"geometry":{"type":"Polygon","coordinates":[[[-79.715988,-6.204035],[-79.716043,-6.204031],[-79.716036,-6.203698],[-79.717093,-6.203673],[-79.717106,-6.204092],[-79.717118,-6.204987],[-79.717025,-6.204952],[-79.716805,-6.204746],[-79.716626,-6.204653],[-79.716396,-6.204587],[-79.716173,-6.204558],[-79.715975,-6.204565],[-79.715988,-6.204035]]]}},{"type":"Feature","properties":{"LOTE":"M04T02-20","CAMPO":"MOTUPE","FUNDO":"CHOC CHOC","MODULO":"M04","ACTIVO":true,"PIEZAS":1,"TIPO":"LOTE"},"geometry":{"type":"Polygon","coordinates":[[[-79.717122,-6.203679],[-79.717963,-6.203653],[-79.717992,-6.204197],[-79.717934,-6.204179],[-79.717947,-6.205018],[-79.717661,-6.205018],[-79.717315,-6.204998],[-79.717138,-6.204989],[-79.717122,-6.203679]]]}}]}
